{
  "province": "Cavite",
  "city": "Alfonso",
  "zip": "4123",
  "barangays": [
    { "name": "Amuyong", "zip": "4123" },
    { "name": "Barangay I (Pob.)", "zip": "4123" },
    { "name": "Barangay II (Pob.)", "zip": "4123" },
    { "name": "Barangay III (Pob.)", "zip": "4123" },
    { "name": "Barangay IV (Pob.)", "zip": "4123" },
    { "name": "Barangay V (Pob.)", "zip": "4123" },
    { "name": "Buck Estate", "zip": "4123" },
    { "name": "Esperanza Ibaba", "zip": "4123" },
    { "name": "Kaytitinga I", "zip": "4123" },
    { "name": "Luksuhin", "zip": "4123" },
    { "name": "Mangas I", "zip": "4123" },
    { "name": "Marahan I", "zip": "4123" },
    { "name": "Matagbak I", "zip": "4123" },
    { "name": "Pajo", "zip": "4123" },
    { "name": "Sikat", "zip": "4123" },
    { "name": "Sinaliw Malaki", "zip": "4123" },
    { "name": "Sinaliw na Munti", "zip": "4123" },
    { "name": "Sulsugin", "zip": "4123" },
    { "name": "Taywanak Ibaba", "zip": "4123" },
    { "name": "Taywanak Ilaya", "zip": "4123" },
    { "name": "Upli", "zip": "4123" },
    { "name": "Kaysuyo", "zip": "4123" },
    { "name": "Luksuhin Ilaya", "zip": "4123" },
    { "name": "Palumlum", "zip": "4123" },
    { "name": "Bilog", "zip": "4123" },
    { "name": "Esperanza Ilaya", "zip": "4123" },
    { "name": "Kaytitinga II", "zip": "4123" },
    { "name": "Kaytitinga III", "zip": "4123" },
    { "name": "Mangas II", "zip": "4123" },
    { "name": "Marahan II", "zip": "4123" },
    { "name": "Matagbak II", "zip": "4123" },
    { "name": "Santa Teresa", "zip": "4123" }
  ]
}
