{
  "province": "Cavite",
  "city": "Bacoor",
  "barangays": [
    { "name": "Alima", "zip": "4102" },
    { "name": "Aniban I", "zip": "4102" },
    { "name": "Aniban II", "zip": "4102" },
    { "name": "Aniban III", "zip": "4102" },
    { "name": "Aniban IV", "zip": "4102" },
    { "name": "Aniban V", "zip": "4102" },
    { "name": "Banalo", "zip": "4102" },
    { "name": "Bayanan", "zip": "4102" },
    { "name": "Campo Santo", "zip": "4102" },
    { "name": "Daang Bukid", "zip": "4102" },
    { "name": "Digman", "zip": "4102" },
    { "name": "Dulong Bayan", "zip": "4102" },
    { "name": "Habay I", "zip": "4102" },
    { "name": "Habay II", "zip": "4102" },
    { "name": "Kaingin (Pob.)", "zip": "4102" },
    { "name": "Ligas I", "zip": "4102" },
    { "name": "Ligas II", "zip": "4102" },
    { "name": "Ligas III", "zip": "4102" },
    { "name": "Mabolo I", "zip": "4102" },
    { "name": "Mabolo II", "zip": "4102" },
    { "name": "Mabolo III", "zip": "4102" },
    { "name": "Maliksi I", "zip": "4102" },
    { "name": "Maliksi II", "zip": "4102" },
    { "name": "Maliksi III", "zip": "4102" },
    { "name": "Mambog I", "zip": "4102" },
    { "name": "Mambog II", "zip": "4102" },
    { "name": "Mambog III", "zip": "4102" },
    { "name": "Mambog IV", "zip": "4102" },
    { "name": "Mambog V", "zip": "4102" },
    { "name": "Niog I", "zip": "4102" },
    { "name": "Niog II", "zip": "4102" },
    { "name": "Niog III", "zip": "4102" },
    { "name": "P.F. Espiritu I (Panapaan)", "zip": "4102" },
    { "name": "P.F. Espiritu II", "zip": "4102" },
    { "name": "P.F. Espiritu III", "zip": "4102" },
    { "name": "P.F. Espiritu IV", "zip": "4102" },
    { "name": "P.F. Espiritu V", "zip": "4102" },
    { "name": "P.F. Espiritu VI", "zip": "4102" },
    { "name": "P.F. Espiritu VII", "zip": "4102" },
    { "name": "P.F. Espiritu VIII", "zip": "4102" },
    { "name": "Real I", "zip": "4102" },
    { "name": "Real II", "zip": "4102" },
    { "name": "Salinas I", "zip": "4102" },
    { "name": "Salinas II", "zip": "4102" },
    { "name": "Salinas III", "zip": "4102" },
    { "name": "Salinas IV", "zip": "4102" },
    { "name": "San Nicolas I", "zip": "4102" },
    { "name": "San Nicolas II", "zip": "4102" },
    { "name": "San Nicolas III", "zip": "4102" },
    { "name": "Sineguelasan", "zip": "4102" },
    { "name": "Tabing Dagat", "zip": "4102" },
    { "name": "Talaba I", "zip": "4102" },
    { "name": "Talaba II", "zip": "4102" },
    { "name": "Talaba III", "zip": "4102" },
    { "name": "Talaba IV", "zip": "4102" },
    { "name": "Talaba V", "zip": "4102" },
    { "name": "Talaba VI", "zip": "4102" },
    { "name": "Talaba VII", "zip": "4102" },
    { "name": "Zapote I", "zip": "4102" },
    { "name": "Zapote II", "zip": "4102" },
    { "name": "Zapote III", "zip": "4102" },
    { "name": "Zapote IV", "zip": "4102" },
    { "name": "Zapote V", "zip": "4102" },

    { "name": "Molino I", "zip": "4103" },
    { "name": "Molino II", "zip": "4103" },
    { "name": "Molino III", "zip": "4103" },
    { "name": "Molino IV", "zip": "4103" },
    { "name": "Molino V", "zip": "4103" },
    { "name": "Molino VI", "zip": "4103" },
    { "name": "Molino VII", "zip": "4103" },

    { "name": "Queens Row Central", "zip": "4102" },
    { "name": "Queens Row East", "zip": "4102" },
    { "name": "Queens Row West", "zip": "4102" }
  ]
}
