{
  "province": "Cavite",
  "city": "Cavite City",
  "zip": "4100",
  "barangays": [
    { "name": "Barangay 1 (Hen. M. Alvarez)", "zip": "4100" },
    { "name": "Barangay 2 (C. Tirona)", "zip": "4100" },
    { "name": "Barangay 3 (Hen. E. Aguinaldo)", "zip": "4100" },
    { "name": "Barangay 4 (Hen. M. Trias)", "zip": "4100" },
    { "name": "Barangay 5 (Hen. E. Evangelista)", "zip": "4100" },
    { "name": "Barangay 6 (Diego Silang)", "zip": "4100" },
    { "name": "Barangay 7 (Kapitan Kong)", "zip": "4100" },
    { "name": "Barangay 8 (Manuel S. Rojas)", "zip": "4100" },
    { "name": "Barangay 9 (Kanaway)", "zip": "4100" },
    { "name": "Barangay 10 (Kingfisher)", "zip": "4100" },
    { "name": "Barangay 11 (Lawin)", "zip": "4100" },
    { "name": "Barangay 12 (Love Bird)", "zip": "4100" },
    { "name": "Barangay 13 (Aguila)", "zip": "4100" },
    { "name": "Barangay 14 (Loro)", "zip": "4100" },
    { "name": "Barangay 15 (Kilyawan)", "zip": "4100" },
    { "name": "Barangay 16 (Martines)", "zip": "4100" },
    { "name": "Barangay 17 (Kalapati)", "zip": "4100" },
    { "name": "Barangay 18 (Maya)", "zip": "4100" },
    { "name": "Barangay 19 (Gemini)", "zip": "4100" },
    { "name": "Barangay 20 (Virgo)", "zip": "4100" },
    { "name": "Barangay 21 (Scorpio)", "zip": "4100" },
    { "name": "Barangay 22 (Leo)", "zip": "4100" },
    { "name": "Barangay 23 (Aquarius)", "zip": "4100" },
    { "name": "Barangay 24 (Libra)", "zip": "4100" },
    { "name": "Barangay 25 (Capricorn)", "zip": "4100" },
    { "name": "Barangay 26 (Cancer)", "zip": "4100" },
    { "name": "Barangay 27 (Sagitarius)", "zip": "4100" },
    { "name": "Barangay 28 (Taurus)", "zip": "4100" },
    { "name": "Barangay 29 (Lao-lao)", "zip": "4100" },
    { "name": "Barangay 30 (Bid-bid)", "zip": "4100" },
    { "name": "Barangay 31 (Maya-maya)", "zip": "4100" },
    { "name": "Barangay 32 (Salay-salay)", "zip": "4100" },
    { "name": "Barangay 33 (Buwan-buwan)", "zip": "4100" },
    { "name": "Barangay 34 (Lapu-lapu)", "zip": "4100" },
    { "name": "Barangay 35 (Hasa-hasa)", "zip": "4100" },
    { "name": "Barangay 36 (Sap-sap)", "zip": "4100" },
    { "name": "Barangay 37 (Cadena de Amor)", "zip": "4100" },
    { "name": "Barangay 38 (Sampaguita)", "zip": "4100" },
    { "name": "Barangay 39 (Jasmin)", "zip": "4100" },
    { "name": "Barangay 40 (Gumamela)", "zip": "4100" },
    { "name": "Barangay 41 (Rosal)", "zip": "4100" },
    { "name": "Barangay 42 (Pinagbuklod)", "zip": "4100" },
    { "name": "Barangay 43 (Pinagpala)", "zip": "4100" },
    { "name": "Barangay 44 (Maligaya)", "zip": "4100" },
    { "name": "Barangay 45 (Kaunlaran)", "zip": "4100" },
    { "name": "Barangay 46 (Sinagtala)", "zip": "4100" },
    { "name": "Barangay 47 (Pagkakaisa)", "zip": "4100" },
    { "name": "Barangay 48 (Narra)", "zip": "4100" },
    { "name": "Barangay 49 (Akasya)", "zip": "4100" },
    { "name": "Barangay 50 (Kabalyero)", "zip": "4100" },
    { "name": "Barangay 51 (Kamagong)", "zip": "4100" },
    { "name": "Barangay 52 (Ipil)", "zip": "4100" },
    { "name": "Barangay 53 (Yakal)", "zip": "4100" },
    { "name": "Barangay 54 (Pechay)", "zip": "4100" },
    { "name": "Barangay 55 (Ampalaya)", "zip": "4100" },
    { "name": "Barangay 56 (Labanos)", "zip": "4100" },
    { "name": "Barangay 57 (Repolyo)", "zip": "4100" },
    { "name": "Barangay 58 (Patola)", "zip": "4100" },
    { "name": "Barangay 59 (Sitaw)", "zip": "4100" },
    { "name": "Barangay 60 (Letsugas)", "zip": "4100" },
    { "name": "Barangay 61 (Talong)", "zip": "4100" },
    { "name": "Barangay 62 (Kangkong)", "zip": "4100" }
  ]
}
