{
  "province": "Cavite",
  "city": "City of Dasmariñas",
  "zip": "4114",
  "barangays": [
    { "name": "Burol I", "zip": "4114" },
    { "name": "Burol II", "zip": "4114" },
    { "name": "Burol III", "zip": "4114" },
    { "name": "Langkaan I", "zip": "4114" },
    { "name": "Langkaan II", "zip": "4114" },
    { "name": "Paliparan I", "zip": "4114" },
    { "name": "Paliparan II", "zip": "4114" },
    { "name": "Paliparan III", "zip": "4114" },
    { "name": "Salawag", "zip": "4114" },
    { "name": "Salitran I", "zip": "4114" },
    { "name": "Salitran II", "zip": "4114" },
    { "name": "Salitran III", "zip": "4114" },
    { "name": "Salitran IV", "zip": "4114" },
    { "name": "Sampaloc I", "zip": "4114" },
    { "name": "Sampaloc II", "zip": "4114" },
    { "name": "Sampaloc III", "zip": "4114" },
    { "name": "Sampaloc IV", "zip": "4114" },
    { "name": "Sampaloc V", "zip": "4114" },
    { "name": "San Agustin I", "zip": "4114" },
    { "name": "San Agustin II", "zip": "4114" },
    { "name": "San Agustin III", "zip": "4114" },
    { "name": "San Andres I", "zip": "4114" },
    { "name": "San Andres II", "zip": "4114" },
    { "name": "San Antonio de Padua I", "zip": "4114" },
    { "name": "San Antonio de Padua II", "zip": "4114" },
    { "name": "San Dionisio (Barangay 1)", "zip": "4114" },
    { "name": "San Esteban (Barangay 4)", "zip": "4114" },
    { "name": "San Francisco I", "zip": "4114" },
    { "name": "San Francisco II", "zip": "4114" },
    { "name": "San Isidro Labrador I", "zip": "4114" },
    { "name": "San Isidro Labrador II", "zip": "4114" },
    { "name": "San Jose", "zip": "4114" },
    { "name": "San Juan I", "zip": "4114" },
    { "name": "San Juan II (Sta. Lucia)", "zip": "4114" },
    { "name": "San Lorenzo Ruiz I", "zip": "4114" },
    { "name": "San Lorenzo Ruiz II", "zip": "4114" },
    { "name": "San Luis I", "zip": "4114" },
    { "name": "San Luis II", "zip": "4114" },
    { "name": "San Manuel I", "zip": "4114" },
    { "name": "San Manuel II", "zip": "4114" },
    { "name": "San Mateo", "zip": "4114" },
    { "name": "San Miguel I", "zip": "4114" },
    { "name": "San Miguel II", "zip": "4114" },
    { "name": "San Nicolas I", "zip": "4114" },
    { "name": "San Nicolas II", "zip": "4114" },
    { "name": "San Roque (Sta. Cristina II)", "zip": "4114" },
    { "name": "San Simon (Barangay 7)", "zip": "4114" },
    { "name": "Santa Cristina I", "zip": "4114" },
    { "name": "Santa Cristina II", "zip": "4114" },
    { "name": "Santa Cruz I", "zip": "4114" },
    { "name": "Santa Cruz II", "zip": "4114" },
    { "name": "Santa Fe", "zip": "4114" },
    { "name": "Santa Lucia", "zip": "4114" },
    { "name": "Santa Maria (Barangay 20)", "zip": "4114" },
    { "name": "Santo Cristo (Barangay 3)", "zip": "4114" },
    { "name": "Santo Niño I", "zip": "4114" },
    { "name": "Santo Niño II", "zip": "4114" },
    { "name": "Victoria Reyes", "zip": "4114" },
    { "name": "Zone I (Pob.)", "zip": "4114" },
    { "name": "Zone II (Pob.)", "zip": "4114" },
    { "name": "Zone III (Pob.)", "zip": "4114" },
    { "name": "Zone IV (Pob.)", "zip": "4114" }
  ]
}
