{
  "province": "Cavite",
  "city": "General Mariano Alvarez",
  "zip": "4117",
  "barangays": [
    { "name": "Aldiano Olaes", "zip": "4117" },
    { "name": "Barangay 1 Poblacion (Area I)", "zip": "4117" },
    { "name": "Barangay 2 Poblacion", "zip": "4117" },
    { "name": "Barangay 3 Poblacion", "zip": "4117" },
    { "name": "Barangay 4 Poblacion", "zip": "4117" },
    { "name": "Barangay 5 Poblacion", "zip": "4117" },
    { "name": "Benjamin Tirona (Area D)", "zip": "4117" },
    { "name": "Bernardo Pulido (Area H)", "zip": "4117" },
    { "name": "Epifanio Malia", "zip": "4117" },
    { "name": "Fiorello Carimag (Area C)", "zip": "4117" },
    { "name": "Francisco De Castro (Sunshine Village)", "zip": "4117" },
    { "name": "Francisco Reyes", "zip": "4117" },
    { "name": "Gavino Maderan", "zip": "4117" },
    { "name": "Gregoria De Jesus", "zip": "4117" },
    { "name": "Inocencio Salud", "zip": "4117" },
    { "name": "Jacinto Lumbreras", "zip": "4117" },
    { "name": "Kapitan Kua (Area F)", "zip": "4117" },
    { "name": "Koronel Jose P. Elises (Area E)", "zip": "4117" },
    { "name": "Macario Dacon", "zip": "4117" },
    { "name": "Marcelino Memije", "zip": "4117" },
    { "name": "Nicolasa Virata (San Jose)", "zip": "4117" },
    { "name": "Pantaleon Granados (Area G)", "zip": "4117" },
    { "name": "Ramon Cruz (Area J)", "zip": "4117" },
    { "name": "San Gabriel (Area K)", "zip": "4117" },
    { "name": "San Jose", "zip": "4117" },
    { "name": "Severino De Las Alas", "zip": "4117" },
    { "name": "Tiniente Tiago", "zip": "4117" }
  ]
}
