{
  "province": "Cavite",
  "city": "Imus",
  "zip": "4103",
  "barangays": [
    { "name": "Alapan I-A", "zip": "4103" },
    { "name": "Alapan I-B", "zip": "4103" },
    { "name": "Alapan I-C", "zip": "4103" },
    { "name": "Alapan II-A", "zip": "4103" },
    { "name": "Alapan II-B", "zip": "4103" },
    { "name": "Anabu I-A", "zip": "4103" },
    { "name": "Anabu I-B", "zip": "4103" },
    { "name": "Anabu I-C", "zip": "4103" },
    { "name": "Anabu I-D", "zip": "4103" },
    { "name": "Anabu I-E", "zip": "4103" },
    { "name": "Anabu I-F", "zip": "4103" },
    { "name": "Anabu I-G", "zip": "4103" },
    { "name": "Anabu II-A", "zip": "4103" },
    { "name": "Anabu II-B", "zip": "4103" },
    { "name": "Anabu II-C", "zip": "4103" },
    { "name": "Anabu II-D", "zip": "4103" },
    { "name": "Anabu II-E", "zip": "4103" },
    { "name": "Anabu II-F", "zip": "4103" },
    { "name": "Bayan Luma I", "zip": "4103" },
    { "name": "Bayan Luma II", "zip": "4103" },
    { "name": "Bayan Luma III", "zip": "4103" },
    { "name": "Bayan Luma IV", "zip": "4103" },
    { "name": "Bayan Luma V", "zip": "4103" },
    { "name": "Bayan Luma VI", "zip": "4103" },
    { "name": "Bayan Luma VII", "zip": "4103" },
    { "name": "Bayan Luma VIII", "zip": "4103" },
    { "name": "Bayan Luma IX", "zip": "4103" },
    { "name": "Bucandala I", "zip": "4103" },
    { "name": "Bucandala II", "zip": "4103" },
    { "name": "Bucandala III", "zip": "4103" },
    { "name": "Bucandala IV", "zip": "4103" },
    { "name": "Bucandala V", "zip": "4103" },
    { "name": "Buhay na Tubig", "zip": "4103" },
    { "name": "Carsadang Bago I", "zip": "4103" },
    { "name": "Carsadang Bago II", "zip": "4103" },
    { "name": "Malagasang I-A", "zip": "4103" },
    { "name": "Malagasang I-B", "zip": "4103" },
    { "name": "Malagasang I-C", "zip": "4103" },
    { "name": "Malagasang I-D", "zip": "4103" },
    { "name": "Malagasang I-E", "zip": "4103" },
    { "name": "Malagasang I-F", "zip": "4103" },
    { "name": "Malagasang I-G", "zip": "4103" },
    { "name": "Malagasang II-A", "zip": "4103" },
    { "name": "Malagasang II-B", "zip": "4103" },
    { "name": "Malagasang II-C", "zip": "4103" },
    { "name": "Malagasang II-D", "zip": "4103" },
    { "name": "Malagasang II-E", "zip": "4103" },
    { "name": "Malagasang II-F", "zip": "4103" },
    { "name": "Malagasang II-G", "zip": "4103" },
    { "name": "Mariano Espeleta I", "zip": "4103" },
    { "name": "Mariano Espeleta II", "zip": "4103" },
    { "name": "Mariano Espeleta III", "zip": "4103" },
    { "name": "Medicion I-A", "zip": "4103" },
    { "name": "Medicion I-B", "zip": "4103" },
    { "name": "Medicion I-C", "zip": "4103" },
    { "name": "Medicion I-D", "zip": "4103" },
    { "name": "Medicion II-A", "zip": "4103" },
    { "name": "Medicion II-B", "zip": "4103" },
    { "name": "Medicion II-C", "zip": "4103" },
    { "name": "Medicion II-D", "zip": "4103" },
    { "name": "Medicion II-E", "zip": "4103" },
    { "name": "Medicion II-F", "zip": "4103" },
    { "name": "Pag-Asa I", "zip": "4103" },
    { "name": "Pag-Asa II", "zip": "4103" },
    { "name": "Pag-Asa III", "zip": "4103" },
    { "name": "Palico I", "zip": "4103" },
    { "name": "Palico II", "zip": "4103" },
    { "name": "Palico III", "zip": "4103" },
    { "name": "Palico IV", "zip": "4103" },
    { "name": "Pasong Buaya I", "zip": "4103" },
    { "name": "Pasong Buaya II", "zip": "4103" },
    { "name": "Pinagbuklod", "zip": "4103" },
    { "name": "Poblacion I-A", "zip": "4103" },
    { "name": "Poblacion I-B", "zip": "4103" },
    { "name": "Poblacion I-C", "zip": "4103" },
    { "name": "Poblacion II-A", "zip": "4103" },
    { "name": "Poblacion II-B", "zip": "4103" },
    { "name": "Poblacion III-A", "zip": "4103" },
    { "name": "Poblacion III-B", "zip": "4103" },
    { "name": "Poblacion IV-A", "zip": "4103" },
    { "name": "Poblacion IV-B", "zip": "4103" },
    { "name": "Poblacion IV-C", "zip": "4103" },
    { "name": "Poblacion IV-D", "zip": "4103" },
    { "name": "Tanzang Luma I", "zip": "4103" },
    { "name": "Tanzang Luma II", "zip": "4103" },
    { "name": "Tanzang Luma III", "zip": "4103" },
    { "name": "Tanzang Luma IV", "zip": "4103" },
    { "name": "Tanzang Luma V", "zip": "4103" },
    { "name": "Tanzang Luma VI", "zip": "4103" },
    { "name": "Toclong I-A", "zip": "4103" },
    { "name": "Toclong I-B", "zip": "4103" },
    { "name": "Toclong I-C", "zip": "4103" },
    { "name": "Toclong II-A", "zip": "4103" },
    { "name": "Toclong II-B", "zip": "4103" }
  ]
}
