{
  "province": "Cavite",
  "city": "Indang",
  "zip": "4122",
  "barangays": [
    { "name": "Agus-us", "zip": "4122" },
    { "name": "Alulod", "zip": "4122" },
    { "name": "Banaba Cerca", "zip": "4122" },
    { "name": "Banaba Lejos", "zip": "4122" },
    { "name": "Bancod", "zip": "4122" },
    { "name": "Buna Cerca", "zip": "4122" },
    { "name": "Buna Lejos I", "zip": "4122" },
    { "name": "Buna Lejos II", "zip": "4122" },
    { "name": "Calumpang Cerca", "zip": "4122" },
    { "name": "Calumpang Lejos I", "zip": "4122" },
    { "name": "Carasuchi", "zip": "4122" },
    { "name": "Daine I", "zip": "4122" },
    { "name": "Daine II", "zip": "4122" },
    { "name": "Guyam Malaki", "zip": "4122" },
    { "name": "Guyam Munti", "zip": "4122" },
    { "name": "Harasan", "zip": "4122" },
    { "name": "Kaytambog", "zip": "4122" },
    { "name": "Kaytapos", "zip": "4122" },
    { "name": "Kayquit I", "zip": "4122" },
    { "name": "Kayquit II", "zip": "4122" },
    { "name": "Kayquit III", "zip": "4122" },
    { "name": "Limbon", "zip": "4122" },
    { "name": "Lumampong Balagbag", "zip": "4122" },
    { "name": "Lumampong Halayhay", "zip": "4122" },
    { "name": "Mahabangkahoy Cerca", "zip": "4122" },
    { "name": "Mahabangkahoy Lejos", "zip": "4122" },
    { "name": "Pulo", "zip": "4122" },
    { "name": "Tambo Balagbag", "zip": "4122" },
    { "name": "Tambo Ilaya", "zip": "4122" },
    { "name": "Tambo Kulit", "zip": "4122" },
    { "name": "Tambo Malaki", "zip": "4122" },
    { "name": "Barangay 1 (Pob.)", "zip": "4122" },
    { "name": "Barangay 2 (Pob.)", "zip": "4122" },
    { "name": "Barangay 3 (Pob.)", "zip": "4122" },
    { "name": "Barangay 4 (Pob.)", "zip": "4122" }
  ]
}
