{
  "province": "Cavite",
  "city": "Maragondon",
  "zip": "4112",
  "barangays": [
    { "name": "Bucal I", "zip": "4112" },
    { "name": "Bucal II", "zip": "4112" },
    { "name": "Bucal III-A", "zip": "4112" },
    { "name": "Bucal III-B", "zip": "4112" },
    { "name": "Bucal IV-A", "zip": "4112" },
    { "name": "Bucal IV-B", "zip": "4112" },
    { "name": "Caingin (Bgy. 3)", "zip": "4112" },
    { "name": "Garita I-A", "zip": "4112" },
    { "name": "Garita I-B", "zip": "4112" },
    { "name": "Layong Mabilog", "zip": "4112" },
    { "name": "Mabato", "zip": "4112" },
    { "name": "Pantihan I", "zip": "4112" },
    { "name": "Pantihan II", "zip": "4112" },
    { "name": "Pantihan III", "zip": "4112" },
    { "name": "Pantihan IV", "zip": "4112" },
    { "name": "Patungan", "zip": "4112" },
    { "name": "Pinagsanhan I-A", "zip": "4112" },
    { "name": "Pinagsanhan I-B", "zip": "4112" },
    { "name": "Poblacion I-A", "zip": "4112" },
    { "name": "Poblacion I-B", "zip": "4112" },
    { "name": "Poblacion II-A", "zip": "4112" },
    { "name": "Poblacion II-B", "zip": "4112" },
    { "name": "San Miguel I-A", "zip": "4112" },
    { "name": "San Miguel I-B", "zip": "4112" },
    { "name": "Talipusngo", "zip": "4112" },
    { "name": "Tulay Kanluran", "zip": "4112" },
    { "name": "Tulay Silangan", "zip": "4112" }
  ]
}
