{
  "province": "Cavite",
  "city": "Naic",
  "zip": "4110",
  "barangays": [
    { "name": "Bagong Karsada", "zip": "4110" },
    { "name": "Balsahan", "zip": "4110" },
    { "name": "Bancaan", "zip": "4110" },
    { "name": "Bucana Malaki", "zip": "4110" },
    { "name": "Bucana Sasahan", "zip": "4110" },
    { "name": "Calubcob", "zip": "4110" },
    { "name": "Capt. C. Nazareno (Pob.)", "zip": "4110" },
    { "name": "Gomez-Zamora (Pob.)", "zip": "4110" },
    { "name": "Halang", "zip": "4110" },
    { "name": "Humbac", "zip": "4110" },
    { "name": "Ibayo Estacion", "zip": "4110" },
    { "name": "Ibayo Silangan", "zip": "4110" },
    { "name": "Kanluran", "zip": "4110" },
    { "name": "Labac", "zip": "4110" },
    { "name": "Latoria", "zip": "4110" },
    { "name": "Mabolo", "zip": "4110" },
    { "name": "Makina", "zip": "4110" },
    { "name": "Malainen Bago", "zip": "4110" },
    { "name": "Malainen Luma", "zip": "4110" },
    { "name": "Molino", "zip": "4110" },
    { "name": "Munting Mapino", "zip": "4110" },
    { "name": "Muzon", "zip": "4110" },
    { "name": "Palangue 1", "zip": "4110" },
    { "name": "Palangue 2 & 3", "zip": "4110" },
    { "name": "Sabang", "zip": "4110" },
    { "name": "San Roque", "zip": "4110" },
    { "name": "Santulan", "zip": "4110" },
    { "name": "Sapa", "zip": "4110" },
    { "name": "Timalan Balsahan", "zip": "4110" },
    { "name": "Timalan Concepcion", "zip": "4110" }
  ]
}
