{
  "province": "Cavite",
  "city": "Silang",
  "zip": "4118",
  "barangays": [
    { "name": "Adlas", "zip": "4118" },
    { "name": "Balite I", "zip": "4118" },
    { "name": "Balite II", "zip": "4118" },
    { "name": "Balubad", "zip": "4118" },
    { "name": "Batas", "zip": "4118" },
    { "name": "Biga I", "zip": "4118" },
    { "name": "Biga II", "zip": "4118" },
    { "name": "Biluso", "zip": "4118" },
    { "name": "Buho", "zip": "4118" },
    { "name": "Bucal", "zip": "4118" },
    { "name": "Bulihan", "zip": "4118" },
    { "name": "Cabangaan", "zip": "4118" },
    { "name": "Carmen", "zip": "4118" },
    { "name": "Hukay", "zip": "4118" },
    { "name": "Iba", "zip": "4118" },
    { "name": "Inchican", "zip": "4118" },
    { "name": "Kalubkob", "zip": "4118" },
    { "name": "Kaong", "zip": "4118" },
    { "name": "Lalaan I", "zip": "4118" },
    { "name": "Lalaan II", "zip": "4118" },
    { "name": "Litlit", "zip": "4118" },
    { "name": "Lucsuhin", "zip": "4118" },
    { "name": "Lumil", "zip": "4118" },
    { "name": "Maguyam", "zip": "4118" },
    { "name": "Malabag", "zip": "4118" },
    { "name": "Mataas Na Burol", "zip": "4118" },
    { "name": "Munting Ilog", "zip": "4118" },
    { "name": "Paligawan", "zip": "4118" },
    { "name": "Pasong Langka", "zip": "4118" },
    { "name": "Pooc I", "zip": "4118" },
    { "name": "Pooc II", "zip": "4118" },
    { "name": "Pulong Bunga", "zip": "4118" },
    { "name": "Pulong Saging", "zip": "4118" },
    { "name": "Puting Kahoy", "zip": "4118" },
    { "name": "Sabutan", "zip": "4118" },
    { "name": "San Miguel I", "zip": "4118" },
    { "name": "San Miguel II", "zip": "4118" },
    { "name": "San Vicente I", "zip": "4118" },
    { "name": "San Vicente II", "zip": "4118" },
    { "name": "Santol", "zip": "4118" },
    { "name": "Tartaria", "zip": "4118" },
    { "name": "Tibig", "zip": "4118" },
    { "name": "Toledo", "zip": "4118" },
    { "name": "Tubuan I", "zip": "4118" },
    { "name": "Tubuan II", "zip": "4118" },
    { "name": "Tubuan III", "zip": "4118" },
    { "name": "Ulat", "zip": "4118" },
    { "name": "Acacia", "zip": "4118" },
    { "name": "Anahaw I", "zip": "4118" },
    { "name": "Anahaw II", "zip": "4118" },
    { "name": "Ipil I", "zip": "4118" },
    { "name": "Ipil II", "zip": "4118" },
    { "name": "Malaking Tatyao", "zip": "4118" },
    { "name": "Narra I", "zip": "4118" },
    { "name": "Narra II", "zip": "4118" },
    { "name": "Narra III", "zip": "4118" },
    { "name": "Yakal", "zip": "4118" }
  ]
}
