{
  "province": "Cavite",
  "city": "Tagaytay City",
  "zip": "4120",
  "barangays": [
    { "name": "Asisan", "zip": "4120" },
    { "name": "Bagong Tubig", "zip": "4120" },
    { "name": "Calabuso", "zip": "4120" },
    { "name": "Dapdap East", "zip": "4120" },
    { "name": "Dapdap West", "zip": "4120" },
    { "name": "Francisco (San Francisco)", "zip": "4120" },
    { "name": "Guinhawa North", "zip": "4120" },
    { "name": "Guinhawa South", "zip": "4120" },
    { "name": "Iruhin East", "zip": "4120" },
    { "name": "Iruhin South", "zip": "4120" },
    { "name": "Iruhin West", "zip": "4120" },
    { "name": "Kaybagal East", "zip": "4120" },
    { "name": "Kaybagal North", "zip": "4120" },
    { "name": "Kaybagal South (Pob.)", "zip": "4120" },
    { "name": "Mag-Asawang Ilat", "zip": "4120" },
    { "name": "Maharlika East", "zip": "4120" },
    { "name": "Maharlika West", "zip": "4120" },
    { "name": "Maitim 2nd Central", "zip": "4120" },
    { "name": "Maitim 2nd East", "zip": "4120" },
    { "name": "Maitim 2nd West", "zip": "4120" },
    { "name": "Mendez Crossing East", "zip": "4120" },
    { "name": "Mendez Crossing West", "zip": "4120" },
    { "name": "Neogan", "zip": "4120" },
    { "name": "Patutong Malaki North", "zip": "4120" },
    { "name": "Patutong Malaki South", "zip": "4120" },
    { "name": "Sambong", "zip": "4120" },
    { "name": "San Jose", "zip": "4120" },
    { "name": "Silang Junction North", "zip": "4120" },
    { "name": "Silang Junction South", "zip": "4120" },
    { "name": "Sungay North", "zip": "4120" },
    { "name": "Sungay South", "zip": "4120" },
    { "name": "Tolentino East", "zip": "4120" },
    { "name": "Tolentino West", "zip": "4120" },
    { "name": "Zambal", "zip": "4120" }
  ]
}
