{
  "province": "Cavite",
  "city": "Tanza",
  "zip": "4108",
  "barangays": [
    { "name": "Amaya I", "zip": "4108" },
    { "name": "Amaya II", "zip": "4108" },
    { "name": "Amaya III", "zip": "4108" },
    { "name": "Amaya IV", "zip": "4108" },
    { "name": "Amaya V", "zip": "4108" },
    { "name": "Amaya VI", "zip": "4108" },
    { "name": "Amaya VII", "zip": "4108" },
    { "name": "Bagtas", "zip": "4108" },
    { "name": "Biga", "zip": "4108" },
    { "name": "Biwas", "zip": "4108" },
    { "name": "Bucal", "zip": "4108" },
    { "name": "Bunga", "zip": "4108" },
    { "name": "Calibuyo", "zip": "4108" },
    { "name": "Capipisa", "zip": "4108" },
    { "name": "Daang Amaya I", "zip": "4108" },
    { "name": "Daang Amaya II", "zip": "4108" },
    { "name": "Daang Amaya III", "zip": "4108" },
    { "name": "Halayhay", "zip": "4108" },
    { "name": "Julugan I", "zip": "4108" },
    { "name": "Julugan II", "zip": "4108" },
    { "name": "Julugan III", "zip": "4108" },
    { "name": "Julugan IV", "zip": "4108" },
    { "name": "Julugan V", "zip": "4108" },
    { "name": "Julugan VI", "zip": "4108" },
    { "name": "Julugan VII", "zip": "4108" },
    { "name": "Julugan VIII", "zip": "4108" },
    { "name": "Lambingan", "zip": "4108" },
    { "name": "Mulawin", "zip": "4108" },
    { "name": "Paradahan I", "zip": "4108" },
    { "name": "Paradahan II", "zip": "4108" },
    { "name": "Poblacion I", "zip": "4108" },
    { "name": "Poblacion II", "zip": "4108" },
    { "name": "Poblacion III", "zip": "4108" },
    { "name": "Poblacion IV", "zip": "4108" },
    { "name": "Punta I", "zip": "4108" },
    { "name": "Punta II", "zip": "4108" },
    { "name": "Sahud Ulan", "zip": "4108" },
    { "name": "Sanja Mayor", "zip": "4108" },
    { "name": "Santol", "zip": "4108" },
    { "name": "Tanauan", "zip": "4108" },
    { "name": "Tres Cruses", "zip": "4108" }
  ]
}
