{
  "province": "Rizal",
  "city": "Binangonan",
  "zip": "1940",
  "barangays": [
    { "name": "Bangad", "zip": "1940" },
    { "name": "Batingan", "zip": "1940" },
    { "name": "Bilibiran", "zip": "1940" },
    { "name": "Binitagan", "zip": "1940" },
    { "name": "Bombong", "zip": "1940" },
    { "name": "Buhangin", "zip": "1940" },
    { "name": "Calumpang", "zip": "1940" },
    { "name": "Ginoong Sanay", "zip": "1940" },
    { "name": "Gulod", "zip": "1940" },
    { "name": "Habagatan", "zip": "1940" },
    { "name": "Ithan", "zip": "1940" },
    { "name": "Janosa", "zip": "1940" },
    { "name": "Kalawaan", "zip": "1940" },
    { "name": "Kalinawan", "zip": "1940" },
    { "name": "Kasile", "zip": "1940" },
    { "name": "Kaytome", "zip": "1940" },
    { "name": "Kinaboogan", "zip": "1940" },
    { "name": "Kinagatan", "zip": "1940" },
    { "name": "Libis (Pob.)", "zip": "1940" },
    { "name": "Limbon-limbon", "zip": "1940" },
    { "name": "Lunsad", "zip": "1940" },
    { "name": "Mahabang Parang", "zip": "1940" },
    { "name": "Macamot", "zip": "1940" },
    { "name": "Mambog", "zip": "1940" },
    { "name": "Palangoy", "zip": "1940" },
    { "name": "Pantok", "zip": "1940" },
    { "name": "Pila Pila", "zip": "1940" },
    { "name": "Pinagdilawan", "zip": "1940" },
    { "name": "Pipindan", "zip": "1940" },
    { "name": "Rayap", "zip": "1940" },
    { "name": "Sapang", "zip": "1940" },
    { "name": "Tabon", "zip": "1940" },
    { "name": "Tagpos", "zip": "1940" },
    { "name": "Tatala", "zip": "1940" },
    { "name": "Tayuman", "zip": "1940" },
    { "name": "Layunan (Pob.)", "zip": "1940" },
    { "name": "Libid (Pob.)", "zip": "1940" },
    { "name": "Malakaban", "zip": "1940" },
    { "name": "Pag-Asa", "zip": "1940" },
    { "name": "San Carlos", "zip": "1940" }
  ]
}
