{
  "province": "Laguna",
  "city": "Calamba City",
  "zip": "4027",
  "barangays": [
    { "name": "Bagong Kalsada", "zip": "4027" },
    { "name": "Banadero", "zip": "4027" },
    { "name": "Banlic", "zip": "4027" },
    { "name": "Barandal", "zip": "4027" },
    { "name": "Bubuyan", "zip": "4027" },
    { "name": "Bucal", "zip": "4027" },
    { "name": "Bunggo", "zip": "4027" },
    { "name": "Burol", "zip": "4027" },
    { "name": "Camaligan", "zip": "4027" },
    { "name": "Canlubang", "zip": "4028" },
    { "name": "Halang", "zip": "4027" },
    { "name": "Hornalan", "zip": "4027" },
    { "name": "Kay-Anlog", "zip": "4027" },
    { "name": "Laguerta", "zip": "4027" },
    { "name": "La Mesa", "zip": "4027" },
    { "name": "Lawa", "zip": "4027" },
    { "name": "Lecheria", "zip": "4027" },
    { "name": "Lingga", "zip": "4027" },
    { "name": "Looc", "zip": "4027" },
    { "name": "Mabato", "zip": "4027" },
    { "name": "Makiling", "zip": "4027" },
    { "name": "Mapagong", "zip": "4027" },
    { "name": "Masili", "zip": "4027" },
    { "name": "Maunong", "zip": "4027" },
    { "name": "Mayapa", "zip": "4027" },
    { "name": "Paciano Rizal", "zip": "4027" },
    { "name": "Palingon", "zip": "4027" },
    { "name": "Palo-Alto", "zip": "4027" },
    { "name": "Pansol", "zip": "4027" },
    { "name": "Parian", "zip": "4027" },
    { "name": "Barangay 1 (Pob.)", "zip": "4027" },
    { "name": "Barangay 2 (Pob.)", "zip": "4027" },
    { "name": "Barangay 3 (Pob.)", "zip": "4027" },
    { "name": "Barangay 4 (Pob.)", "zip": "4027" },
    { "name": "Barangay 5 (Pob.)", "zip": "4027" },
    { "name": "Barangay 6 (Pob.)", "zip": "4027" },
    { "name": "Barangay 7 (Pob.)", "zip": "4027" },
    { "name": "Prinza", "zip": "4027" },
    { "name": "Punta", "zip": "4027" },
    { "name": "Puting Lupa", "zip": "4027" },
    { "name": "Real", "zip": "4027" },
    { "name": "Sucol", "zip": "4027" },
    { "name": "Saimsim", "zip": "4027" },
    { "name": "Sampiruhan", "zip": "4027" },
    { "name": "San Cristobal", "zip": "4027" },
    { "name": "San Jose", "zip": "4027" },
    { "name": "San Juan", "zip": "4027" },
    { "name": "Sirang Lupa", "zip": "4027" },
    { "name": "Tulo", "zip": "4027" },
    { "name": "Turbina", "zip": "4027" },
    { "name": "Ulango", "zip": "4027" },
    { "name": "Uwisan", "zip": "4027" },
    { "name": "Batino", "zip": "4027" },
    { "name": "Majada Labas", "zip": "4027" }
  ]
}
