{
  "province": "Laguna",
  "city": "Liliw",
  "zip": "4004",
  "barangays": [
    { "name": "Bagong Anyo (Pob.)", "zip": "4004" },
    { "name": "Bayate", "zip": "4004" },
    { "name": "Bubukal", "zip": "4004" },
    { "name": "Bongkol", "zip": "4004" },
    { "name": "Cabuyao", "zip": "4004" },
    { "name": "Calumpang", "zip": "4004" },
    { "name": "Culoy", "zip": "4004" },
    { "name": "Dagatan", "zip": "4004" },
    { "name": "Daniw (Danliw)", "zip": "4004" },
    { "name": "Dita", "zip": "4004" },
    { "name": "Ibabang Palina", "zip": "4004" },
    { "name": "Ibabang San Roque", "zip": "4004" },
    { "name": "Ibabang Sungi", "zip": "4004" },
    { "name": "Ibabang Taykin", "zip": "4004" },
    { "name": "Ilayang Palina", "zip": "4004" },
    { "name": "Ilayang San Roque", "zip": "4004" },
    { "name": "Ilayang Sungi", "zip": "4004" },
    { "name": "Ilayang Taykin", "zip": "4004" },
    { "name": "Kanlurang Bukal", "zip": "4004" },
    { "name": "Laguan", "zip": "4004" },
    { "name": "Rizal (Pob.)", "zip": "4004" },
    { "name": "Luquin", "zip": "4004" },
    { "name": "Malabo-Kalantukan", "zip": "4004" },
    { "name": "Masikap (Pob.)", "zip": "4004" },
    { "name": "Maslun (Pob.)", "zip": "4004" },
    { "name": "Mojon", "zip": "4004" },
    { "name": "Novaliches", "zip": "4004" },
    { "name": "Oples", "zip": "4004" },
    { "name": "Pag-Asa (Pob.)", "zip": "4004" },
    { "name": "Palayan", "zip": "4004" },
    { "name": "San Isidro", "zip": "4004" },
    { "name": "Silangang Bukal", "zip": "4004" },
    { "name": "Tuy-Baanan", "zip": "4004" }
  ]
}
