{
  "province": "Laguna",
  "city": "Majayjay",
  "zip": "4005",
  "barangays": [
    { "name": "Amonoy", "zip": "4005" },
    { "name": "Bakia", "zip": "4005" },
    { "name": "Bukal", "zip": "4005" },
    { "name": "Balanac", "zip": "4005" },
    { "name": "Balayong", "zip": "4005" },
    { "name": "Banilad", "zip": "4005" },
    { "name": "Banti", "zip": "4005" },
    { "name": "Bitaoy", "zip": "4005" },
    { "name": "Botocan", "zip": "4005" },
    { "name": "Burgos", "zip": "4005" },
    { "name": "Burol", "zip": "4005" },
    { "name": "Coralao", "zip": "4005" },
    { "name": "Gagalot", "zip": "4005" },
    { "name": "Ibabang Banga", "zip": "4005" },
    { "name": "Ibabang Bayucain", "zip": "4005" },
    { "name": "Ilayang Banga", "zip": "4005" },
    { "name": "Ilayang Bayucain", "zip": "4005" },
    { "name": "Isabang", "zip": "4005" },
    { "name": "Malinao", "zip": "4005" },
    { "name": "May-It", "zip": "4005" },
    { "name": "Munting Kawayan", "zip": "4005" },
    { "name": "Oobi", "zip": "4005" },
    { "name": "Olla", "zip": "4005" },
    { "name": "Origuel (Pob.)", "zip": "4005" },
    { "name": "Panalaban", "zip": "4005" },
    { "name": "Panglan", "zip": "4005" },
    { "name": "Pangil", "zip": "4005" },
    { "name": "Piit", "zip": "4005" },
    { "name": "Pook", "zip": "4005" },
    { "name": "Rizal", "zip": "4005" },
    { "name": "San Francisco (Pob.)", "zip": "4005" },
    { "name": "San Isidro", "zip": "4005" },
    { "name": "San Miguel (Pob.)", "zip": "4005" },
    { "name": "San Roque", "zip": "4005" },
    { "name": "Santa Catalina (Pob.)", "zip": "4005" },
    { "name": "Suba", "zip": "4005" },
    { "name": "Tanawan", "zip": "4005" },
    { "name": "Taytay", "zip": "4005" },
    { "name": "Talortor", "zip": "4005" },
    { "name": "Villa Nogales", "zip": "4005" }
  ]
}
