{
  "province": "Laguna",
  "city": "Nagcarlan",
  "zip": "4002",
  "barangays": [
    { "name": "Abo", "zip": "4002" },
    { "name": "Alibungbungan", "zip": "4002" },
    { "name": "Alumbrado", "zip": "4002" },
    { "name": "Balayong", "zip": "4002" },
    { "name": "Balimbing", "zip": "4002" },
    { "name": "Balinacon", "zip": "4002" },
    { "name": "Bambang", "zip": "4002" },
    { "name": "Banago", "zip": "4002" },
    { "name": "Banca-banca", "zip": "4002" },
    { "name": "Bangcuro", "zip": "4002" },
    { "name": "Banilad", "zip": "4002" },
    { "name": "Bayaquitos", "zip": "4002" },
    { "name": "Buboy", "zip": "4002" },
    { "name": "Buenavista", "zip": "4002" },
    { "name": "Buhanginan", "zip": "4002" },
    { "name": "Bukal", "zip": "4002" },
    { "name": "Bunga", "zip": "4002" },
    { "name": "Cabuyew", "zip": "4002" },
    { "name": "Calumpang", "zip": "4002" },
    { "name": "Kanluran Kabubuhayan", "zip": "4002" },
    { "name": "Silangan Kabubuhayan", "zip": "4002" },
    { "name": "Labangan", "zip": "4002" },
    { "name": "Lawaguin", "zip": "4002" },
    { "name": "Kanluran Lazaan", "zip": "4002" },
    { "name": "Silangan Lazaan", "zip": "4002" },
    { "name": "Lagulo", "zip": "4002" },
    { "name": "Maiit", "zip": "4002" },
    { "name": "Malaya", "zip": "4002" },
    { "name": "Malinao", "zip": "4002" },
    { "name": "Manaol", "zip": "4002" },
    { "name": "Maravilla", "zip": "4002" },
    { "name": "Nagcalbang", "zip": "4002" },
    { "name": "Poblacion I (Pob.)", "zip": "4002" },
    { "name": "Poblacion II (Pob.)", "zip": "4002" },
    { "name": "Poblacion III (Pob.)", "zip": "4002" },
    { "name": "Oples", "zip": "4002" },
    { "name": "Palayan", "zip": "4002" },
    { "name": "Palina", "zip": "4002" },
    { "name": "Sabang", "zip": "4002" },
    { "name": "San Francisco", "zip": "4002" },
    { "name": "Sibulan", "zip": "4002" },
    { "name": "Silangan Napapatid", "zip": "4002" },
    { "name": "Silangan Ilaya", "zip": "4002" },
    { "name": "Sinipian", "zip": "4002" },
    { "name": "Santa Lucia", "zip": "4002" },
    { "name": "Sulsuguin", "zip": "4002" },
    { "name": "Talahib", "zip": "4002" },
    { "name": "Talangan", "zip": "4002" },
    { "name": "Taytay", "zip": "4002" },
    { "name": "Tipacan", "zip": "4002" },
    { "name": "Wakat", "zip": "4002" },
    { "name": "Yukos", "zip": "4002" }
  ]
}
