{
  "province": "Laguna",
  "city": "San Pablo City",
  "zip": "4000",
  "barangays": [
    { "name": "Bagong Bayan II-A (Pob.)", "zip": "4000" },
    { "name": "Bagong Pook VI-C (Pob.)", "zip": "4000" },
    { "name": "Barangay I-A (Pob.)", "zip": "4000" },
    { "name": "Barangay I-B (Pob.)", "zip": "4000" },
    { "name": "Barangay II-A (Pob.)", "zip": "4000" },
    { "name": "Barangay II-B (Pob.)", "zip": "4000" },
    { "name": "Barangay II-C (Pob.)", "zip": "4000" },
    { "name": "Barangay II-D (Pob.)", "zip": "4000" },
    { "name": "Barangay II-E (Pob.)", "zip": "4000" },
    { "name": "Barangay II-F (Pob.)", "zip": "4000" },
    { "name": "Barangay III-A (Pob.)", "zip": "4000" },
    { "name": "Barangay III-B (Pob.)", "zip": "4000" },
    { "name": "Barangay III-C (Pob.)", "zip": "4000" },
    { "name": "Barangay III-D (Pob.)", "zip": "4000" },
    { "name": "Barangay III-E (Pob.)", "zip": "4000" },
    { "name": "Barangay III-F (Pob.)", "zip": "4000" },
    { "name": "Barangay IV-A (Pob.)", "zip": "4000" },
    { "name": "Barangay IV-B (Pob.)", "zip": "4000" },
    { "name": "Barangay IV-C (Pob.)", "zip": "4000" },
    { "name": "Barangay V-A (Pob.)", "zip": "4000" },
    { "name": "Barangay V-B (Pob.)", "zip": "4000" },
    { "name": "Barangay V-C (Pob.)", "zip": "4000" },
    { "name": "Barangay V-D (Pob.)", "zip": "4000" },
    { "name": "Barangay VI-A (Pob.)", "zip": "4000" },
    { "name": "Barangay VI-B (Pob.)", "zip": "4000" },
    { "name": "Barangay VI-D (Pob.)", "zip": "4000" },
    { "name": "Barangay VI-E (Pob.)", "zip": "4000" },
    { "name": "Barangay VII-A (Pob.)", "zip": "4000" },
    { "name": "Barangay VII-B (Pob.)", "zip": "4000" },
    { "name": "Barangay VII-C (Pob.)", "zip": "4000" },
    { "name": "Barangay VII-D (Pob.)", "zip": "4000" },
    { "name": "Barangay VII-E (Pob.)", "zip": "4000" },
    { "name": "Bautista", "zip": "4000" },
    { "name": "Concepcion", "zip": "4000" },
    { "name": "Del Remedio", "zip": "4000" },
    { "name": "Dolores", "zip": "4000" },
    { "name": "San Antonio 1", "zip": "4000" },
    { "name": "San Antonio 2", "zip": "4000" },
    { "name": "San Bartolome", "zip": "4000" },
    { "name": "San Buenaventura", "zip": "4000" },
    { "name": "San Crispin", "zip": "4000" },
    { "name": "San Cristobal", "zip": "4000" },
    { "name": "San Diego", "zip": "4000" },
    { "name": "San Francisco", "zip": "4000" },
    { "name": "San Gabriel", "zip": "4000" },
    { "name": "San Gregorio", "zip": "4000" },
    { "name": "San Ignacio", "zip": "4000" },
    { "name": "San Isidro", "zip": "4000" },
    { "name": "San Joaquin", "zip": "4000" },
    { "name": "San Jose", "zip": "4000" },
    { "name": "San Juan", "zip": "4000" },
    { "name": "San Lorenzo", "zip": "4000" },
    { "name": "San Lucas 1", "zip": "4000" },
    { "name": "San Lucas 2", "zip": "4000" },
    { "name": "San Marcos", "zip": "4000" },
    { "name": "San Mateo", "zip": "4000" },
    { "name": "San Miguel", "zip": "4000" },
    { "name": "San Nicolas", "zip": "4000" },
    { "name": "San Pedro", "zip": "4000" },
    { "name": "San Rafael", "zip": "4000" },
    { "name": "San Roque", "zip": "4000" },
    { "name": "San Vicente", "zip": "4000" },
    { "name": "Santa Ana", "zip": "4000" },
    { "name": "Santa Catalina", "zip": "4000" },
    { "name": "Santa Cruz", "zip": "4000" },
    { "name": "Santa Felomina", "zip": "4000" },
    { "name": "Santa Isabel", "zip": "4000" },
    { "name": "Santa Maria Magdalena", "zip": "4000" },
    { "name": "Santa Veronica", "zip": "4000" },
    { "name": "Santiago I", "zip": "4000" },
    { "name": "Santiago II", "zip": "4000" },
    { "name": "Santisimo Rosario", "zip": "4000" },
    { "name": "Santo Angel", "zip": "4000" },
    { "name": "Santo Cristo", "zip": "4000" },
    { "name": "Santo Ni√±o", "zip": "4000" },
    { "name": "Soledad", "zip": "4000" },
    { "name": "Atisan", "zip": "4000" },
    { "name": "Santa Elena", "zip": "4000" },
    { "name": "Santa Maria", "zip": "4000" },
    { "name": "Santa Monica", "zip": "4000" }
  ]
}
