{
  "province": "Quezon",
  "city": "Atimonan",
  "zip": "4331",
  "barangays": [
    { "name": "Angeles", "zip": "4331" },
    { "name": "Balubad", "zip": "4331" },
    { "name": "Balugohin", "zip": "4331" },
    { "name": "Barangay Zone 1 (Pob.)", "zip": "4331" },
    { "name": "Barangay Zone 2 (Pob.)", "zip": "4331" },
    { "name": "Barangay Zone 3 (Pob.)", "zip": "4331" },
    { "name": "Barangay Zone 4 (Pob.)", "zip": "4331" },
    { "name": "Buhangin", "zip": "4331" },
    { "name": "Caridad Ibaba", "zip": "4331" },
    { "name": "Caridad Ilaya", "zip": "4331" },
    { "name": "Habingan", "zip": "4331" },
    { "name": "Inaclagan", "zip": "4331" },
    { "name": "Inalig", "zip": "4331" },
    { "name": "Kilait", "zip": "4331" },
    { "name": "Kulawit", "zip": "4331" },
    { "name": "Lakip", "zip": "4331" },
    { "name": "Lubi", "zip": "4331" },
    { "name": "Lumutan", "zip": "4331" },
    { "name": "Magsaysay", "zip": "4331" },
    { "name": "Malinao Ibaba", "zip": "4331" },
    { "name": "Malinao Ilaya", "zip": "4331" },
    { "name": "Malusak", "zip": "4331" },
    { "name": "Manggalayan Bundok", "zip": "4331" },
    { "name": "Manggalayan Labak", "zip": "4331" },
    { "name": "Matanag", "zip": "4331" },
    { "name": "Montes Balaon", "zip": "4331" },
    { "name": "Montes Kallagan", "zip": "4331" },
    { "name": "Ponon", "zip": "4331" },
    { "name": "Rizal", "zip": "4331" },
    { "name": "San Andres Bundok", "zip": "4331" },
    { "name": "San Andres Labak", "zip": "4331" },
    { "name": "San Isidro", "zip": "4331" },
    { "name": "San Jose Balatok", "zip": "4331" },
    { "name": "San Rafael", "zip": "4331" },
    { "name": "Santa Catalina", "zip": "4331" },
    { "name": "Sapaan", "zip": "4331" },
    { "name": "Sokol", "zip": "4331" },
    { "name": "Tagbakin", "zip": "4331" },
    { "name": "Talaba", "zip": "4331" },
    { "name": "Tinandog", "zip": "4331" },
    { "name": "Villa Ibaba", "zip": "4331" },
    { "name": "Villa Ilaya", "zip": "4331" }
  ]
}
