{
  "province": "Quezon",
  "city": "Buenavista",
  "zip": "4320",
  "barangays": [
    { "name": "Bagong Silang", "zip": "4320" },
    { "name": "Batabat Norte", "zip": "4320" },
    { "name": "Batabat Sur", "zip": "4320" },
    { "name": "Buenavista", "zip": "4320" },
    { "name": "Bukal", "zip": "4320" },
    { "name": "Bulo", "zip": "4320" },
    { "name": "Cabong", "zip": "4320" },
    { "name": "Cadlit", "zip": "4320" },
    { "name": "Catulin", "zip": "4320" },
    { "name": "Cawa", "zip": "4320" },
    { "name": "De La Paz", "zip": "4320" },
    { "name": "Del Rosario", "zip": "4320" },
    { "name": "Hagonghong", "zip": "4320" },
    { "name": "Ibabang Wasay", "zip": "4320" },
    { "name": "Ilayang Wasay", "zip": "4320" },
    { "name": "Lilukin", "zip": "4320" },
    { "name": "Mabini", "zip": "4320" },
    { "name": "Mabutag", "zip": "4320" },
    { "name": "Magallanes", "zip": "4320" },
    { "name": "Maligaya (Esperanza)", "zip": "4320" },
    { "name": "Manlana", "zip": "4320" },
    { "name": "Masaya", "zip": "4320" },
    { "name": "Poblacion", "zip": "4320" },
    { "name": "Rizal", "zip": "4320" },
    { "name": "Sabang Pinamasagan", "zip": "4320" },
    { "name": "Sabang Piris", "zip": "4320" },
    { "name": "San Diego", "zip": "4320" },
    { "name": "San Isidro Ibaba", "zip": "4320" },
    { "name": "San Isidro Ilaya", "zip": "4320" },
    { "name": "San Pablo", "zip": "4320" },
    { "name": "San Pedro (Villa Rodrigo)", "zip": "4320" },
    { "name": "San Vicente", "zip": "4320" },
    { "name": "Siain", "zip": "4320" },
    { "name": "Villa Aurora", "zip": "4320" },
    { "name": "Villa Batabat", "zip": "4320" },
    { "name": "Villa Magsaysay", "zip": "4320" },
    { "name": "Villa Veronica", "zip": "4320" }
  ]
}
