{
  "province": "Quezon",
  "city": "Calauag",
  "zip": "4318",
  "barangays": [
    { "name": "Agoho", "zip": "4318" },
    { "name": "Anahawan", "zip": "4318" },
    { "name": "Anas", "zip": "4318" },
    { "name": "Apad Lutao", "zip": "4318" },
    { "name": "Apad Quezon", "zip": "4318" },
    { "name": "Apad Taisan", "zip": "4318" },
    { "name": "Atulayan", "zip": "4318" },
    { "name": "Baclaran", "zip": "4318" },
    { "name": "Bagong Silang", "zip": "4318" },
    { "name": "Balibago", "zip": "4318" },
    { "name": "Bangkuruhan", "zip": "4318" },
    { "name": "Bantolinao", "zip": "4318" },
    { "name": "Barangay I (Pob.)", "zip": "4318" },
    { "name": "Barangay II (Pob.)", "zip": "4318" },
    { "name": "Barangay III (Pob.)", "zip": "4318" },
    { "name": "Barangay IV (Pob.)", "zip": "4318" },
    { "name": "Barangay V (Pob.)", "zip": "4318" },
    { "name": "Bigaan", "zip": "4318" },
    { "name": "Binutas", "zip": "4318" },
    { "name": "Biyan", "zip": "4318" },
    { "name": "Bukal", "zip": "4318" },
    { "name": "Buli", "zip": "4318" },
    { "name": "Dapdap", "zip": "4318" },
    { "name": "Dominlog", "zip": "4318" },
    { "name": "Doña Aurora", "zip": "4318" },
    { "name": "Guinosayan", "zip": "4318" },
    { "name": "Ipil", "zip": "4318" },
    { "name": "Kalibo (Santa Cruz)", "zip": "4318" },
    { "name": "Kapaluhan", "zip": "4318" },
    { "name": "Katangtang", "zip": "4318" },
    { "name": "Kigtan", "zip": "4318" },
    { "name": "Kinamaligan", "zip": "4318" },
    { "name": "Kinalin Ibaba", "zip": "4318" },
    { "name": "Kinalin Ilaya", "zip": "4318" },
    { "name": "Kumaludkud", "zip": "4318" },
    { "name": "Kunalum", "zip": "4318" },
    { "name": "Kuyaoyao", "zip": "4318" },
    { "name": "Lagay", "zip": "4318" },
    { "name": "Lainglaingan", "zip": "4318" },
    { "name": "Lungib", "zip": "4318" },
    { "name": "Mabini", "zip": "4318" },
    { "name": "Madlangdungan", "zip": "4318" },
    { "name": "Maglipad (Rosario)", "zip": "4318" },
    { "name": "Maligaya", "zip": "4318" },
    { "name": "Mambaling", "zip": "4318" },
    { "name": "Manhulugin", "zip": "4318" },
    { "name": "Marilag (Punaya)", "zip": "4318" },
    { "name": "Mulay", "zip": "4318" },
    { "name": "Pandanan", "zip": "4318" },
    { "name": "Pansol", "zip": "4318" },
    { "name": "Patihan", "zip": "4318" },
    { "name": "Pinagbayanan", "zip": "4318" },
    { "name": "Pinagkamaligan", "zip": "4318" },
    { "name": "Pinagsakahan", "zip": "4318" },
    { "name": "Pinagtalleran", "zip": "4318" },
    { "name": "Rizal Ibaba", "zip": "4318" },
    { "name": "Rizal Ilaya", "zip": "4318" },
    { "name": "Sabang I", "zip": "4318" },
    { "name": "Sabang II", "zip": "4318" },
    { "name": "Salvacion", "zip": "4318" },
    { "name": "San Quintin", "zip": "4318" },
    { "name": "San Roque Ibaba", "zip": "4318" },
    { "name": "San Roque Ilaya", "zip": "4318" },
    { "name": "Santa Cecilia", "zip": "4318" },
    { "name": "Santa Maria", "zip": "4318" },
    { "name": "Santa Milagrosa", "zip": "4318" },
    { "name": "Santa Rosa", "zip": "4318" },
    { "name": "Santo Angel (Pangahoy)", "zip": "4318" },
    { "name": "Santo Domingo", "zip": "4318" },
    { "name": "Sinag", "zip": "4318" },
    { "name": "Sumilang", "zip": "4318" },
    { "name": "Sumulong", "zip": "4318" },
    { "name": "Tabansak", "zip": "4318" },
    { "name": "Talingting", "zip": "4318" },
    { "name": "Tamis", "zip": "4318" },
    { "name": "Tikiwan", "zip": "4318" },
    { "name": "Tiniguiban", "zip": "4318" },
    { "name": "Villa Magsino", "zip": "4318" },
    { "name": "Villa San Isidro", "zip": "4318" },
    { "name": "Viñas", "zip": "4318" },
    { "name": "Yaganak", "zip": "4318" }
  ]
}
