{
  "province": "Quezon",
  "city": "Catanauan",
  "zip": "4311",
  "barangays": [
    { "name": "Ajos", "zip": "4311" },
    { "name": "Anusan", "zip": "4311" },
    { "name": "Barangay 1 (Pob.)", "zip": "4311" },
    { "name": "Barangay 2 (Pob.)", "zip": "4311" },
    { "name": "Barangay 3 (Pob.)", "zip": "4311" },
    { "name": "Barangay 4 (Pob.)", "zip": "4311" },
    { "name": "Barangay 5 (Pob.)", "zip": "4311" },
    { "name": "Barangay 6 (Pob.)", "zip": "4311" },
    { "name": "Barangay 7 (Pob.)", "zip": "4311" },
    { "name": "Barangay 8 (Pob.)", "zip": "4311" },
    { "name": "Barangay 9 (Pob.)", "zip": "4311" },
    { "name": "Barangay 10 (Pob.)", "zip": "4311" },
    { "name": "Bolo", "zip": "4311" },
    { "name": "Bulagsong", "zip": "4311" },
    { "name": "Camandiison", "zip": "4311" },
    { "name": "Canculajao", "zip": "4311" },
    { "name": "Catumbo", "zip": "4311" },
    { "name": "Cawayanin Ibaba", "zip": "4311" },
    { "name": "Cawayanin Ilaya", "zip": "4311" },
    { "name": "Cutcutan", "zip": "4311" },
    { "name": "Dahican", "zip": "4311" },
    { "name": "Doongan Ibaba", "zip": "4311" },
    { "name": "Doongan Ilaya", "zip": "4311" },
    { "name": "Gatasan", "zip": "4311" },
    { "name": "Macpac", "zip": "4311" },
    { "name": "Madulao", "zip": "4311" },
    { "name": "Matandang Sabang Kanluran", "zip": "4311" },
    { "name": "Matandang Sabang Silangan", "zip": "4311" },
    { "name": "Milagrosa", "zip": "4311" },
    { "name": "Navitas", "zip": "4311" },
    { "name": "Pacabit", "zip": "4311" },
    { "name": "San Antonio Magkupa", "zip": "4311" },
    { "name": "San Antonio Pala", "zip": "4311" },
    { "name": "San Isidro", "zip": "4311" },
    { "name": "San Jose (Anyao)", "zip": "4311" },
    { "name": "San Pablo (Suha)", "zip": "4311" },
    { "name": "San Roque (Doyon)", "zip": "4311" },
    { "name": "San Vicente Kanluran", "zip": "4311" },
    { "name": "San Vicente Silangan", "zip": "4311" },
    { "name": "Santa Maria (Dao)", "zip": "4311" },
    { "name": "Tagabas Ibaba", "zip": "4311" },
    { "name": "Tagabas Ilaya", "zip": "4311" },
    { "name": "Tagbacan Ibaba", "zip": "4311" },
    { "name": "Tagbacan Ilaya", "zip": "4311" },
    { "name": "Tagbacan Silangan", "zip": "4311" },
    { "name": "Tuhian", "zip": "4311" }
  ]
}
