{
  "province": "Quezon",
  "city": "General Luna",
  "zip": "4310",
  "barangays": [
    { "name": "Bacong Ibaba", "zip": "4310" },
    { "name": "Bacong Ilaya", "zip": "4310" },
    { "name": "Barangay 1 (Pob.)", "zip": "4310" },
    { "name": "Barangay 2 (Pob.)", "zip": "4310" },
    { "name": "Barangay 3 (Pob.)", "zip": "4310" },
    { "name": "Barangay 4 (Pob.)", "zip": "4310" },
    { "name": "Barangay 5 (Pob.)", "zip": "4310" },
    { "name": "Barangay 6 (Pob.)", "zip": "4310" },
    { "name": "Barangay 7 (Pob.)", "zip": "4310" },
    { "name": "Barangay 8 (Pob.)", "zip": "4310" },
    { "name": "Barangay 9 (Pob.)", "zip": "4310" },
    { "name": "Lavides", "zip": "4310" },
    { "name": "Magsaysay", "zip": "4310" },
    { "name": "Malaya", "zip": "4310" },
    { "name": "Nieva", "zip": "4310" },
    { "name": "Recto", "zip": "4310" },
    { "name": "San Ignacio Ibaba", "zip": "4310" },
    { "name": "San Ignacio Ilaya", "zip": "4310" },
    { "name": "San Isidro Ibaba", "zip": "4310" },
    { "name": "San Isidro Ilaya", "zip": "4310" },
    { "name": "San Jose", "zip": "4310" },
    { "name": "San Nicolas", "zip": "4310" },
    { "name": "San Vicente", "zip": "4310" },
    { "name": "Santa Maria Ibaba", "zip": "4310" },
    { "name": "Santa Maria Ilaya", "zip": "4310" },
    { "name": "Sumilang", "zip": "4310" },
    { "name": "Villarica", "zip": "4310" }
  ]
}
