{
  "province": "Quezon",
  "city": "Guinayangan",
  "zip": "4319",
  "barangays": [
    { "name": "A. Mabini", "zip": "4319" },
    { "name": "Aloneros", "zip": "4319" },
    { "name": "Arbismen", "zip": "4319" },
    { "name": "Bagong Silang", "zip": "4319" },
    { "name": "Balinarin", "zip": "4319" },
    { "name": "Bukal Maligaya", "zip": "4319" },
    { "name": "Cabibihan", "zip": "4319" },
    { "name": "Cabong Norte", "zip": "4319" },
    { "name": "Cabong Sur", "zip": "4319" },
    { "name": "Calimpak", "zip": "4319" },
    { "name": "Capuluan Central", "zip": "4319" },
    { "name": "Capuluan Tulon", "zip": "4319" },
    { "name": "Dancalan Caimawan", "zip": "4319" },
    { "name": "Dancalan Central", "zip": "4319" },
    { "name": "Danlagan Batis", "zip": "4319" },
    { "name": "Danlagan Cabayao", "zip": "4319" },
    { "name": "Danlagan Central", "zip": "4319" },
    { "name": "Danlagan Reserva", "zip": "4319" },
    { "name": "Del Rosario", "zip": "4319" },
    { "name": "Dungawan Central", "zip": "4319" },
    { "name": "Dungawan Paalyunan", "zip": "4319" },
    { "name": "Dungawan Pantay", "zip": "4319" },
    { "name": "Ermita", "zip": "4319" },
    { "name": "Gapas", "zip": "4319" },
    { "name": "Himbubulo Este", "zip": "4319" },
    { "name": "Himbubulo Weste", "zip": "4319" },
    { "name": "Hinabaan", "zip": "4319" },
    { "name": "Ligpit Bantayan", "zip": "4319" },
    { "name": "Lubigan", "zip": "4319" },
    { "name": "Magallanes", "zip": "4319" },
    { "name": "Magsaysay", "zip": "4319" },
    { "name": "Manggagawa", "zip": "4319" },
    { "name": "Manggalang", "zip": "4319" },
    { "name": "Manlayo", "zip": "4319" },
    { "name": "Poblacion", "zip": "4319" },
    { "name": "Salakan", "zip": "4319" },
    { "name": "San Antonio", "zip": "4319" },
    { "name": "San Isidro", "zip": "4319" },
    { "name": "San Jose", "zip": "4319" },
    { "name": "San Lorenzo", "zip": "4319" },
    { "name": "San Luis I", "zip": "4319" },
    { "name": "San Luis II", "zip": "4319" },
    { "name": "San Miguel", "zip": "4319" },
    { "name": "San Pedro I", "zip": "4319" },
    { "name": "San Pedro II", "zip": "4319" },
    { "name": "San Roque", "zip": "4319" },
    { "name": "Santa Cruz", "zip": "4319" },
    { "name": "Santa Maria", "zip": "4319" },
    { "name": "Santa Teresita", "zip": "4319" },
    { "name": "Sintones", "zip": "4319" },
    { "name": "Sisi", "zip": "4319" },
    { "name": "Tikay", "zip": "4319" },
    { "name": "Triumpo", "zip": "4319" },
    { "name": "Villa Hiwasayan", "zip": "4319" }
  ]
}
