{
  "province": "Quezon",
  "city": "Gumaca",
  "zip": "4307",
  "barangays": [
    { "name": "Adia Bitaog", "zip": "4307" },
    { "name": "Anonangin", "zip": "4307" },
    { "name": "Bagong Buhay (Pob.)", "zip": "4307" },
    { "name": "Bamban", "zip": "4307" },
    { "name": "Bantad", "zip": "4307" },
    { "name": "Batong Dalig", "zip": "4307" },
    { "name": "Biga", "zip": "4307" },
    { "name": "Binambang", "zip": "4307" },
    { "name": "Buensuceso", "zip": "4307" },
    { "name": "Bungahan", "zip": "4307" },
    { "name": "Butaguin", "zip": "4307" },
    { "name": "Calumangin", "zip": "4307" },
    { "name": "Camohaguin", "zip": "4307" },
    { "name": "Casasahan Ibaba", "zip": "4307" },
    { "name": "Casasahan Ilaya", "zip": "4307" },
    { "name": "Cawayan", "zip": "4307" },
    { "name": "Gayagayaan", "zip": "4307" },
    { "name": "Gitnang Barrio", "zip": "4307" },
    { "name": "Hardinan", "zip": "4307" },
    { "name": "Inaclagan", "zip": "4307" },
    { "name": "Inagbuhan Ilaya", "zip": "4307" },
    { "name": "Hagakhakin", "zip": "4307" },
    { "name": "Labnig", "zip": "4307" },
    { "name": "Laguna", "zip": "4307" },
    { "name": "Mabini (Pob.)", "zip": "4307" },
    { "name": "Mabunga", "zip": "4307" },
    { "name": "Malabtog", "zip": "4307" },
    { "name": "Manlayaan", "zip": "4307" },
    { "name": "Marcelo H. Del Pilar", "zip": "4307" },
    { "name": "Mataas Na Bundok", "zip": "4307" },
    { "name": "Maunlad (Pob.)", "zip": "4307" },
    { "name": "Pagsabangan", "zip": "4307" },
    { "name": "Panikihan", "zip": "4307" },
    { "name": "Peñafrancia (Pob.)", "zip": "4307" },
    { "name": "Pipisik (Pob.)", "zip": "4307" },
    { "name": "Progreso", "zip": "4307" },
    { "name": "Rizal (Pob.)", "zip": "4307" },
    { "name": "Rosario", "zip": "4307" },
    { "name": "San Agustin", "zip": "4307" },
    { "name": "San Diego Poblacion", "zip": "4307" },
    { "name": "San Isidro Kanluran", "zip": "4307" },
    { "name": "San Isidro Silangan", "zip": "4307" },
    { "name": "San Juan De Jesus", "zip": "4307" },
    { "name": "San Vicente", "zip": "4307" },
    { "name": "Sastre", "zip": "4307" },
    { "name": "Tabing Dagat (Pob.)", "zip": "4307" },
    { "name": "Tumayan", "zip": "4307" },
    { "name": "Villa Arcaya", "zip": "4307" },
    { "name": "Villa Bota", "zip": "4307" },
    { "name": "Villa Fuerte", "zip": "4307" },
    { "name": "Villa Mendoza", "zip": "4307" },
    { "name": "Villa Padua", "zip": "4307" },
    { "name": "Villa Perez", "zip": "4307" },
    { "name": "Villa M. Principe", "zip": "4307" },
    { "name": "Villa Tañada", "zip": "4307" },
    { "name": "Villa Victoria", "zip": "4307" },
    { "name": "San Diego", "zip": "4307" },
    { "name": "Villa Nava", "zip": "4307" },
    { "name": "Lagyo", "zip": "4307" }
  ]
}
