{
  "province": "Quezon",
  "city": "Infanta",
  "zip": "4336",
  "barangays": [
    { "name": "Abiawin", "zip": "4336" },
    { "name": "Agos-agos", "zip": "4336" },
    { "name": "Alitas", "zip": "4336" },
    { "name": "Amolongin", "zip": "4336" },
    { "name": "Anibong", "zip": "4336" },
    { "name": "Antikin", "zip": "4336" },
    { "name": "Bacong", "zip": "4336" },
    { "name": "Balobo", "zip": "4336" },
    { "name": "Bantilan", "zip": "4336" },
    { "name": "Banugao", "zip": "4336" },
    { "name": "Poblacion 1 (Barangay 1)", "zip": "4336" },
    { "name": "Poblacion 38 (Barangay 2)", "zip": "4336" },
    { "name": "Poblacion 39 (Barangay 3)", "zip": "4336" },
    { "name": "Batican", "zip": "4336" },
    { "name": "Binonoan", "zip": "4336" },
    { "name": "Binulasan", "zip": "4336" },
    { "name": "Boboin", "zip": "4336" },
    { "name": "Comon", "zip": "4336" },
    { "name": "Dinahican", "zip": "4336" },
    { "name": "Gumian", "zip": "4336" },
    { "name": "Ilog", "zip": "4336" },
    { "name": "Ingas", "zip": "4336" },
    { "name": "Catambungan", "zip": "4336" },
    { "name": "Cawaynin", "zip": "4336" },
    { "name": "Langgas", "zip": "4336" },
    { "name": "Libjo", "zip": "4336" },
    { "name": "Lual", "zip": "4336" },
    { "name": "Magsaysay", "zip": "4336" },
    { "name": "Maypulot", "zip": "4336" },
    { "name": "Miswa", "zip": "4336" },
    { "name": "Pilaway", "zip": "4336" },
    { "name": "Pinaglapatan", "zip": "4336" },
    { "name": "Pulo", "zip": "4336" },
    { "name": "Silangan", "zip": "4336" },
    { "name": "Tongohin", "zip": "4336" },
    { "name": "Tudturan", "zip": "4336" }
  ]
}
