{
  "province": "Quezon",
  "city": "Lopez",
  "zip": "4316",
  "barangays": [
    { "name": "Bacungan", "zip": "4316" },
    { "name": "Bagacay", "zip": "4316" },
    { "name": "Banabahin Ibaba", "zip": "4316" },
    { "name": "Banabahin Ilaya", "zip": "4316" },
    { "name": "Burgos (Pob.)", "zip": "4316" },
    { "name": "Gomez (Pob.)", "zip": "4316" },
    { "name": "Magsaysay (Pob.)", "zip": "4316" },
    { "name": "Talolong (Pob.)", "zip": "4316" },
    { "name": "Bayabas", "zip": "4316" },
    { "name": "Bebito", "zip": "4316" },
    { "name": "Bigajo", "zip": "4316" },
    { "name": "Binahian A", "zip": "4316" },
    { "name": "Binahian B", "zip": "4316" },
    { "name": "Binahian C", "zip": "4316" },
    { "name": "Bocboc", "zip": "4316" },
    { "name": "Buenavista", "zip": "4316" },
    { "name": "Buyacanin", "zip": "4316" },
    { "name": "Cagacag", "zip": "4316" },
    { "name": "Calantipayan", "zip": "4316" },
    { "name": "Canda Ibaba", "zip": "4316" },
    { "name": "Canda Ilaya", "zip": "4316" },
    { "name": "Cawayan", "zip": "4316" },
    { "name": "Cawayanin", "zip": "4316" },
    { "name": "Cogorin Ibaba", "zip": "4316" },
    { "name": "Cogorin Ilaya", "zip": "4316" },
    { "name": "Concepcion", "zip": "4316" },
    { "name": "Danlagan", "zip": "4316" },
    { "name": "De La Paz", "zip": "4316" },
    { "name": "Del Pilar", "zip": "4316" },
    { "name": "Del Rosario", "zip": "4316" },
    { "name": "Esperanza Ibaba", "zip": "4316" },
    { "name": "Esperanza Ilaya", "zip": "4316" },
    { "name": "Guihay", "zip": "4316" },
    { "name": "Guinuangan", "zip": "4316" },
    { "name": "Guites", "zip": "4316" },
    { "name": "Hondagua", "zip": "4316" },
    { "name": "Ilayang Ilog A", "zip": "4316" },
    { "name": "Ilayang Ilog B", "zip": "4316" },
    { "name": "Inalusan", "zip": "4316" },
    { "name": "Jongo", "zip": "4316" },
    { "name": "Lalaguna", "zip": "4316" },
    { "name": "Lourdes", "zip": "4316" },
    { "name": "Mabanban", "zip": "4316" },
    { "name": "Mabini", "zip": "4316" },
    { "name": "Magallanes", "zip": "4316" },
    { "name": "Maguilayan", "zip": "4316" },
    { "name": "Mahayod-Hayod", "zip": "4316" },
    { "name": "Mal-ay", "zip": "4316" },
    { "name": "Mandoog", "zip": "4316" },
    { "name": "Manguisian", "zip": "4316" },
    { "name": "Matinik", "zip": "4316" },
    { "name": "Monteclaro", "zip": "4316" },
    { "name": "Pamampangin", "zip": "4316" },
    { "name": "Pansol", "zip": "4316" },
    { "name": "Pe単afrancia", "zip": "4316" },
    { "name": "Pisipis", "zip": "4316" },
    { "name": "Rizal (Rural)", "zip": "4316" },
    { "name": "Roma", "zip": "4316" },
    { "name": "Rosario", "zip": "4316" },
    { "name": "Samat", "zip": "4316" },
    { "name": "San Andres", "zip": "4316" },
    { "name": "San Antonio", "zip": "4316" },
    { "name": "San Francisco A", "zip": "4316" },
    { "name": "San Francisco B", "zip": "4316" },
    { "name": "San Isidro", "zip": "4316" },
    { "name": "San Jose", "zip": "4316" },
    { "name": "San Miguel (Dao)", "zip": "4316" },
    { "name": "San Pedro", "zip": "4316" },
    { "name": "San Rafael", "zip": "4316" },
    { "name": "San Roque", "zip": "4316" },
    { "name": "Santa Catalina", "zip": "4316" },
    { "name": "Santa Elena", "zip": "4316" },
    { "name": "Santa Jacobe", "zip": "4316" },
    { "name": "Santa Lucia", "zip": "4316" },
    { "name": "Santa Maria", "zip": "4316" },
    { "name": "Santa Rosa", "zip": "4316" },
    { "name": "Santo Ni単o Ibaba", "zip": "4316" },
    { "name": "Santo Ni単o Ilaya", "zip": "4316" },
    { "name": "Silang", "zip": "4316" },
    { "name": "Sugod", "zip": "4316" },
    { "name": "Sumalang", "zip": "4316" },
    { "name": "Tan-ag Ibaba", "zip": "4316" },
    { "name": "Tan-ag Ilaya", "zip": "4316" },
    { "name": "Tocalin", "zip": "4316" },
    { "name": "Vegaflor", "zip": "4316" },
    { "name": "Verga単a", "zip": "4316" },
    { "name": "Veronica", "zip": "4316" },
    { "name": "Villa Aurora", "zip": "4316" },
    { "name": "Villa Espina", "zip": "4316" },
    { "name": "Villa Hermosa", "zip": "4316" },
    { "name": "Villa Geda", "zip": "4316" },
    { "name": "Villamonte", "zip": "4316" },
    { "name": "Villanacaob", "zip": "4316" },
    { "name": "Rizal (Poblacion)", "zip": "4316" },
    { "name": "Santa Teresa (Mayupag)", "zip": "4316" }
  ]
}
