{
  "province": "Quezon",
  "city": "Lucban",
  "zip": "4328",
  "barangays": [
    { "name": "Abang", "zip": "4328" },
    { "name": "Aliliw", "zip": "4328" },
    { "name": "Atulinao", "zip": "4328" },
    { "name": "Ayuti", "zip": "4328" },
    { "name": "Barangay 2 (Pob.)", "zip": "4328" },
    { "name": "Barangay 3 (Pob.)", "zip": "4328" },
    { "name": "Barangay 4 (Pob.)", "zip": "4328" },
    { "name": "Barangay 5 (Pob.)", "zip": "4328" },
    { "name": "Barangay 6 (Pob.)", "zip": "4328" },
    { "name": "Barangay 7 (Pob.)", "zip": "4328" },
    { "name": "Barangay 8 (Pob.)", "zip": "4328" },
    { "name": "Barangay 9 (Pob.)", "zip": "4328" },
    { "name": "Barangay 10 (Pob.)", "zip": "4328" },
    { "name": "Igang", "zip": "4328" },
    { "name": "Kabatete", "zip": "4328" },
    { "name": "Kakawit", "zip": "4328" },
    { "name": "Kalangay", "zip": "4328" },
    { "name": "Kalyaat", "zip": "4328" },
    { "name": "Kilib", "zip": "4328" },
    { "name": "Kulapi", "zip": "4328" },
    { "name": "Mahabang Parang", "zip": "4328" },
    { "name": "Malupak", "zip": "4328" },
    { "name": "Manasa", "zip": "4328" },
    { "name": "May-It", "zip": "4328" },
    { "name": "Nagsinamo", "zip": "4328" },
    { "name": "Nalunao", "zip": "4328" },
    { "name": "Palola", "zip": "4328" },
    { "name": "Piis", "zip": "4328" },
    { "name": "Barangay 1 (Pob.)", "zip": "4328" },
    { "name": "Samil", "zip": "4328" },
    { "name": "Tiawe", "zip": "4328" },
    { "name": "Tinamnan", "zip": "4328" }
  ]
}
