{
  "province": "Quezon",
  "city": "Lucena City",
  "zip": "4301",
  "barangays": [
    { "name": "Barangay 1 (Pob.)", "zip": "4301" },
    { "name": "Barangay 2 (Pob.)", "zip": "4301" },
    { "name": "Barangay 3 (Pob.)", "zip": "4301" },
    { "name": "Barangay 4 (Pob.)", "zip": "4301" },
    { "name": "Barangay 5 (Pob.)", "zip": "4301" },
    { "name": "Barangay 6 (Pob.)", "zip": "4301" },
    { "name": "Barangay 7 (Pob.)", "zip": "4301" },
    { "name": "Barangay 8 (Pob.)", "zip": "4301" },
    { "name": "Barangay 9 (Pob.)", "zip": "4301" },
    { "name": "Barangay 10 (Pob.)", "zip": "4301" },
    { "name": "Barangay 11 (Pob.)", "zip": "4301" },
    { "name": "Barra", "zip": "4301" },
    { "name": "Bocohan", "zip": "4301" },
    { "name": "Mayao Castillo", "zip": "4301" },
    { "name": "Cotta", "zip": "4301" },
    { "name": "Gulang-gulang", "zip": "4301" },
    { "name": "Dalahican", "zip": "4301" },
    { "name": "Domoit", "zip": "4301" },
    { "name": "Ibabang Dupay", "zip": "4301" },
    { "name": "Ibabang Iyam", "zip": "4301" },
    { "name": "Ibabang Talim", "zip": "4301" },
    { "name": "Ilayang Dupay", "zip": "4301" },
    { "name": "Ilayang Iyam", "zip": "4301" },
    { "name": "Ilayang Talim", "zip": "4301" },
    { "name": "Isabang", "zip": "4301" },
    { "name": "Mayao Crossing", "zip": "4301" },
    { "name": "Mayao Kanluran", "zip": "4301" },
    { "name": "Mayao Parada", "zip": "4301" },
    { "name": "Mayao Silangan", "zip": "4301" },
    { "name": "Ransohan", "zip": "4301" },
    { "name": "Salinas", "zip": "4301" },
    { "name": "Talao-talao", "zip": "4301" },
    { "name": "Market View", "zip": "4301" }
  ]
}
