{
  "province": "Quezon",
  "city": "Macalelon",
  "zip": "4309",
  "barangays": [
    { "name": "Amontay", "zip": "4309" },
    { "name": "Anos", "zip": "4309" },
    { "name": "Buyao", "zip": "4309" },
    { "name": "Candangal", "zip": "4309" },
    { "name": "Calantas", "zip": "4309" },
    { "name": "Lahing", "zip": "4309" },
    { "name": "Luctob", "zip": "4309" },
    { "name": "Mabini Ibaba", "zip": "4309" },
    { "name": "Mabini Ilaya", "zip": "4309" },
    { "name": "Malabahay", "zip": "4309" },
    { "name": "Mambog", "zip": "4309" },
    { "name": "Olongtao Ibaba", "zip": "4309" },
    { "name": "Olongtao Ilaya", "zip": "4309" },
    { "name": "Padre Herrera", "zip": "4309" },
    { "name": "Pajarillo", "zip": "4309" },
    { "name": "Pinagbayanan", "zip": "4309" },
    { "name": "Rodriquez (Pob.)", "zip": "4309" },
    { "name": "Rizal (Pob.)", "zip": "4309" },
    { "name": "Castillo (Pob.)", "zip": "4309" },
    { "name": "Pag-Asa (Pob.)", "zip": "4309" },
    { "name": "Masipag (Pob.)", "zip": "4309" },
    { "name": "Damayan (Pob.)", "zip": "4309" },
    { "name": "San Isidro", "zip": "4309" },
    { "name": "San Jose", "zip": "4309" },
    { "name": "San Nicolas", "zip": "4309" },
    { "name": "San Vicente", "zip": "4309" },
    { "name": "Taguin", "zip": "4309" },
    { "name": "Tubigan Ibaba", "zip": "4309" },
    { "name": "Tubigan Ilaya", "zip": "4309" },
    { "name": "Vista Hermosa", "zip": "4309" }
  ]
}
