{
  "province": "Quezon",
  "city": "Mauban",
  "zip": "4330",
  "barangays": [
    { "name": "Abo-abo", "zip": "4330" },
    { "name": "Alitap", "zip": "4330" },
    { "name": "Baao", "zip": "4330" },
    { "name": "Balaybalay", "zip": "4330" },
    { "name": "Bato", "zip": "4330" },
    { "name": "Cagbalete I", "zip": "4330" },
    { "name": "Cagbalete II", "zip": "4330" },
    { "name": "Cagsiay I", "zip": "4330" },
    { "name": "Cagsiay II", "zip": "4330" },
    { "name": "Cagsiay III", "zip": "4330" },
    { "name": "Concepcion", "zip": "4330" },
    { "name": "Liwayway", "zip": "4330" },
    { "name": "Lucutan", "zip": "4330" },
    { "name": "Luya-luya", "zip": "4330" },
    { "name": "Macasin", "zip": "4330" },
    { "name": "Lual (Pob.)", "zip": "4330" },
    { "name": "Mabato (Pob.)", "zip": "4330" },
    { "name": "Daungan (Pob.)", "zip": "4330" },
    { "name": "Bagong Bayan (Pob.)", "zip": "4330" },
    { "name": "Sadsaran (Pob.)", "zip": "4330" },
    { "name": "Rizaliana (Pob.)", "zip": "4330" },
    { "name": "Polo", "zip": "4330" },
    { "name": "Remedios I", "zip": "4330" },
    { "name": "Remedios II", "zip": "4330" },
    { "name": "Rosario", "zip": "4330" },
    { "name": "San Gabriel", "zip": "4330" },
    { "name": "San Isidro", "zip": "4330" },
    { "name": "San Jose", "zip": "4330" },
    { "name": "San Lorenzo", "zip": "4330" },
    { "name": "San Miguel", "zip": "4330" },
    { "name": "San Rafael", "zip": "4330" },
    { "name": "San Roque", "zip": "4330" },
    { "name": "San Vicente", "zip": "4330" },
    { "name": "Santa Lucia", "zip": "4330" },
    { "name": "Santo Angel", "zip": "4330" },
    { "name": "Santo Ni√±o", "zip": "4330" },
    { "name": "Santol", "zip": "4330" },
    { "name": "Soledad", "zip": "4330" },
    { "name": "Tapucan", "zip": "4330" },
    { "name": "Lual Rural", "zip": "4330" }
  ]
}
