{
  "province": "Quezon",
  "city": "Mulanay",
  "zip": "4312",
  "barangays": [
    { "name": "Ajos", "zip": "4312" },
    { "name": "Amuguis", "zip": "4312" },
    { "name": "Anonang", "zip": "4312" },
    { "name": "Bagong Silang", "zip": "4312" },
    { "name": "Bagupaye", "zip": "4312" },
    { "name": "Barangay 1 (Pob.)", "zip": "4312" },
    { "name": "Barangay 2 (Pob.)", "zip": "4312" },
    { "name": "Barangay 3 (Pob.)", "zip": "4312" },
    { "name": "Barangay 4 (Pob.)", "zip": "4312" },
    { "name": "Bolo", "zip": "4312" },
    { "name": "Buenavista", "zip": "4312" },
    { "name": "Burgos", "zip": "4312" },
    { "name": "Butanyog", "zip": "4312" },
    { "name": "Canuyep", "zip": "4312" },
    { "name": "F. Nanadiego", "zip": "4312" },
    { "name": "Ibabang Cambuga", "zip": "4312" },
    { "name": "Ibabang Yuni", "zip": "4312" },
    { "name": "Ilayang Cambuga (Mabini)", "zip": "4312" },
    { "name": "Ilayang Yuni", "zip": "4312" },
    { "name": "Latangan", "zip": "4312" },
    { "name": "Magsaysay", "zip": "4312" },
    { "name": "Matataja", "zip": "4312" },
    { "name": "Pakiing", "zip": "4312" },
    { "name": "Patabog", "zip": "4312" },
    { "name": "Sagongon", "zip": "4312" },
    { "name": "San Isidro", "zip": "4312" },
    { "name": "San Pedro", "zip": "4312" },
    { "name": "Santa Rosa", "zip": "4312" }
  ]
}
