{
  "province": "Quezon",
  "city": "Pagbilao",
  "zip": "4302",
  "barangays": [
    { "name": "Alupaye", "zip": "4302" },
    { "name": "AÃ±ato", "zip": "4302" },
    { "name": "Antipolo", "zip": "4302" },
    { "name": "Bantigue", "zip": "4302" },
    { "name": "Bigo", "zip": "4302" },
    { "name": "Binahaan", "zip": "4302" },
    { "name": "Bukal", "zip": "4302" },
    { "name": "Ibabang Bagumbungan", "zip": "4302" },
    { "name": "Ibabang Palsabangon", "zip": "4302" },
    { "name": "Ibabang Polo", "zip": "4302" },
    { "name": "Ikirin", "zip": "4302" },
    { "name": "Ilayang Bagumbungan", "zip": "4302" },
    { "name": "Ilayang Palsabangon", "zip": "4302" },
    { "name": "Ilayang Polo", "zip": "4302" },
    { "name": "Kanluran Malicboy", "zip": "4302" },
    { "name": "Mapagong", "zip": "4302" },
    { "name": "Mayhay", "zip": "4302" },
    { "name": "Pinagbayanan", "zip": "4302" },
    { "name": "Barangay 1 Castillo (Pob.)", "zip": "4302" },
    { "name": "Barangay 2 Daungan (Pob.)", "zip": "4302" },
    { "name": "Barangay 3 Del Carmen (Pob.)", "zip": "4302" },
    { "name": "Barangay 4 Parang (Pob.)", "zip": "4302" },
    { "name": "Barangay 5 Santa Catalina (Pob.)", "zip": "4302" },
    { "name": "Barangay 6 Tambak (Pob.)", "zip": "4302" },
    { "name": "Silangan Malicboy", "zip": "4302" },
    { "name": "Talipan", "zip": "4302" },
    { "name": "Tukalan", "zip": "4302" }
  ]
}
