{
  "province": "Quezon",
  "city": "Pitogo",
  "zip": "4308",
  "barangays": [
    { "name": "Amontay", "zip": "4308" },
    { "name": "Cometa", "zip": "4308" },
    { "name": "Biga", "zip": "4308" },
    { "name": "Bilucao", "zip": "4308" },
    { "name": "Cabulihan", "zip": "4308" },
    { "name": "Cawayanin", "zip": "4308" },
    { "name": "Gangahin", "zip": "4308" },
    { "name": "Ibabang Burgos", "zip": "4308" },
    { "name": "Ibabang Pacatin", "zip": "4308" },
    { "name": "Ibabang Piña", "zip": "4308" },
    { "name": "Ibabang Soliyao", "zip": "4308" },
    { "name": "Ilayang Burgos", "zip": "4308" },
    { "name": "Ilayang Pacatin", "zip": "4308" },
    { "name": "Ilayang Piña", "zip": "4308" },
    { "name": "Ilayang Soliyao", "zip": "4308" },
    { "name": "Nag-Cruz", "zip": "4308" },
    { "name": "Osmeña", "zip": "4308" },
    { "name": "Payte", "zip": "4308" },
    { "name": "Pinagbayanan", "zip": "4308" },
    { "name": "Masaya (Pob.)", "zip": "4308" },
    { "name": "Manggahan (Pob.)", "zip": "4308" },
    { "name": "Dulong Bayan (Pob.)", "zip": "4308" },
    { "name": "Pag-Asa (Pob.)", "zip": "4308" },
    { "name": "Castillo (Pob.)", "zip": "4308" },
    { "name": "Maaliw (Pob.)", "zip": "4308" },
    { "name": "Mayubok (Pob.)", "zip": "4308" },
    { "name": "Pamilihan (Pob.)", "zip": "4308" },
    { "name": "Dalampasigan (Pob.)", "zip": "4308" },
    { "name": "Poctol", "zip": "4308" },
    { "name": "Quezon", "zip": "4308" },
    { "name": "Quinagasan", "zip": "4308" },
    { "name": "Rizalino", "zip": "4308" },
    { "name": "Saguinsinan", "zip": "4308" },
    { "name": "Sampaloc", "zip": "4308" },
    { "name": "San Roque", "zip": "4308" },
    { "name": "Sisirin", "zip": "4308" },
    { "name": "Sumag Este", "zip": "4308" },
    { "name": "Sumag Norte", "zip": "4308" },
    { "name": "Sumag Weste", "zip": "4308" }
  ]
}
