{
  "province": "Quezon",
  "city": "Sariaya",
  "zip": "4322",
  "barangays": [
    { "name": "Antipolo", "zip": "4322" },
    { "name": "Balubal", "zip": "4322" },
    { "name": "Concepcion Pinagbakuran", "zip": "4322" },
    { "name": "Bignay 1", "zip": "4322" },
    { "name": "Bignay 2", "zip": "4322" },
    { "name": "Bucal", "zip": "4322" },
    { "name": "Canda", "zip": "4322" },
    { "name": "Casta√±as", "zip": "4322" },
    { "name": "Concepcion Banahaw", "zip": "4322" },
    { "name": "Concepcion No. 1", "zip": "4322" },
    { "name": "Concepcion Palasan", "zip": "4322" },
    { "name": "Gibanga", "zip": "4322" },
    { "name": "Guisguis-San Roque", "zip": "4322" },
    { "name": "Guisguis-Talon", "zip": "4322" },
    { "name": "Janagdong 1", "zip": "4322" },
    { "name": "Janagdong 2", "zip": "4322" },
    { "name": "Limbon", "zip": "4322" },
    { "name": "Lutucan Bata", "zip": "4322" },
    { "name": "Lutucan Malabag", "zip": "4322" },
    { "name": "Lutucan 1", "zip": "4322" },
    { "name": "Mamala I", "zip": "4322" },
    { "name": "Mamala II", "zip": "4322" },
    { "name": "Manggalang 1", "zip": "4322" },
    { "name": "Manggalang Tulo-tulo", "zip": "4322" },
    { "name": "Manggalang-Bantilan", "zip": "4322" },
    { "name": "Manggalang-Kiling", "zip": "4322" },
    { "name": "Montecillo", "zip": "4322" },
    { "name": "Morong", "zip": "4322" },
    { "name": "Pili", "zip": "4322" },
    { "name": "Barangay 2 (Pob.)", "zip": "4322" },
    { "name": "Barangay 3 (Pob.)", "zip": "4322" },
    { "name": "Barangay 4 (Pob.)", "zip": "4322" },
    { "name": "Barangay 5 (Pob.)", "zip": "4322" },
    { "name": "Barangay 6 (Pob.)", "zip": "4322" },
    { "name": "Sampaloc Bogon", "zip": "4322" },
    { "name": "Sampaloc 1", "zip": "4322" },
    { "name": "Sampaloc 2", "zip": "4322" },
    { "name": "Sampaloc Santo Cristo", "zip": "4322" },
    { "name": "Talaan Aplaya", "zip": "4322" },
    { "name": "Talaanpantoc", "zip": "4322" },
    { "name": "Tumbaga 1", "zip": "4322" },
    { "name": "Tumbaga 2", "zip": "4322" },
    { "name": "Barangay 1 (Pob.)", "zip": "4322" }
  ]
}
