{
  "province": "Quezon",
  "city": "Tagkawayan",
  "zip": "4321",
  "barangays": [
    { "name": "Aldavoc", "zip": "4321" },
    { "name": "Aliji", "zip": "4321" },
    { "name": "Bagong Silang", "zip": "4321" },
    { "name": "Bamban", "zip": "4321" },
    { "name": "Bosigon", "zip": "4321" },
    { "name": "Bukal", "zip": "4321" },
    { "name": "Cabugwang", "zip": "4321" },
    { "name": "Cagascas", "zip": "4321" },
    { "name": "Casispalan", "zip": "4321" },
    { "name": "Colong-colong", "zip": "4321" },
    { "name": "Del Rosario", "zip": "4321" },
    { "name": "Cabibihan", "zip": "4321" },
    { "name": "Candalapdap", "zip": "4321" },
    { "name": "Katimo", "zip": "4321" },
    { "name": "Kinatakutan", "zip": "4321" },
    { "name": "Landing", "zip": "4321" },
    { "name": "Laurel", "zip": "4321" },
    { "name": "Magsaysay", "zip": "4321" },
    { "name": "Maguibuay", "zip": "4321" },
    { "name": "Mahinta", "zip": "4321" },
    { "name": "Malbog", "zip": "4321" },
    { "name": "Manato Central", "zip": "4321" },
    { "name": "Manato Station", "zip": "4321" },
    { "name": "Mangayao", "zip": "4321" },
    { "name": "Mansilay", "zip": "4321" },
    { "name": "Mapulot", "zip": "4321" },
    { "name": "Munting Parang", "zip": "4321" },
    { "name": "Payapa", "zip": "4321" },
    { "name": "Poblacion", "zip": "4321" },
    { "name": "Rizal", "zip": "4321" },
    { "name": "Sabang", "zip": "4321" },
    { "name": "San Diego", "zip": "4321" },
    { "name": "San Francisco", "zip": "4321" },
    { "name": "San Isidro", "zip": "4321" },
    { "name": "San Roque", "zip": "4321" },
    { "name": "San Vicente", "zip": "4321" },
    { "name": "Santa Cecilia", "zip": "4321" },
    { "name": "Santa Monica", "zip": "4321" },
    { "name": "Santo Niño I", "zip": "4321" },
    { "name": "Santo Niño II", "zip": "4321" },
    { "name": "Santo Tomas", "zip": "4321" },
    { "name": "Seguiwan", "zip": "4321" },
    { "name": "Tabason", "zip": "4321" },
    { "name": "Tunton", "zip": "4321" },
    { "name": "Victoria", "zip": "4321" }
  ]
}
