{
  "province": "Quezon",
  "city": "Tayabas City",
  "zip": "4327",
  "barangays": [
    { "name": "Alitao", "zip": "4327" },
    { "name": "Alupay", "zip": "4327" },
    { "name": "Angeles Zone I (Pob.)", "zip": "4327" },
    { "name": "Angeles Zone II", "zip": "4327" },
    { "name": "Angeles Zone III", "zip": "4327" },
    { "name": "Angeles Zone IV", "zip": "4327" },
    { "name": "Angustias Zone I (Pob.)", "zip": "4327" },
    { "name": "Angustias Zone II", "zip": "4327" },
    { "name": "Angustias Zone III", "zip": "4327" },
    { "name": "Angustias Zone IV", "zip": "4327" },
    { "name": "Anos", "zip": "4327" },
    { "name": "Ayaas", "zip": "4327" },
    { "name": "Baguio", "zip": "4327" },
    { "name": "Banilad", "zip": "4327" },
    { "name": "Calantas", "zip": "4327" },
    { "name": "Camaysa", "zip": "4327" },
    { "name": "Dapdap", "zip": "4327" },
    { "name": "Gibanga", "zip": "4327" },
    { "name": "Alsam Ibaba", "zip": "4327" },
    { "name": "Bukal Ibaba", "zip": "4327" },
    { "name": "Ilasan Ibaba", "zip": "4327" },
    { "name": "Nangka Ibaba", "zip": "4327" },
    { "name": "Palale Ibaba", "zip": "4327" },
    { "name": "Ibas", "zip": "4327" },
    { "name": "Alsam Ilaya", "zip": "4327" },
    { "name": "Bukal Ilaya", "zip": "4327" },
    { "name": "Ilasan Ilaya", "zip": "4327" },
    { "name": "Nangka Ilaya", "zip": "4327" },
    { "name": "Palale Ilaya", "zip": "4327" },
    { "name": "Ipilan", "zip": "4327" },
    { "name": "Isabang", "zip": "4327" },
    { "name": "Calumpang", "zip": "4327" },
    { "name": "Domoit Kanluran", "zip": "4327" },
    { "name": "Katigan Kanluran", "zip": "4327" },
    { "name": "Palale Kanluran", "zip": "4327" },
    { "name": "Lakawan", "zip": "4327" },
    { "name": "Lalo", "zip": "4327" },
    { "name": "Lawigue", "zip": "4327" },
    { "name": "Lita (Pob.)", "zip": "4327" },
    { "name": "Malaoa", "zip": "4327" },
    { "name": "Masin", "zip": "4327" },
    { "name": "Mate", "zip": "4327" },
    { "name": "Mateuna", "zip": "4327" },
    { "name": "Mayowe", "zip": "4327" },
    { "name": "Opias", "zip": "4327" },
    { "name": "Pandakaki", "zip": "4327" },
    { "name": "Pook", "zip": "4327" },
    { "name": "Potol", "zip": "4327" },
    { "name": "San Diego Zone I (Pob.)", "zip": "4327" },
    { "name": "San Diego Zone II", "zip": "4327" },
    { "name": "San Diego Zone III", "zip": "4327" },
    { "name": "San Diego Zone IV", "zip": "4327" },
    { "name": "San Isidro Zone I (Pob.)", "zip": "4327" },
    { "name": "San Isidro Zone II", "zip": "4327" },
    { "name": "San Isidro Zone III", "zip": "4327" },
    { "name": "San Isidro Zone IV", "zip": "4327" },
    { "name": "San Roque Zone I (Pob.)", "zip": "4327" },
    { "name": "San Roque Zone II", "zip": "4327" },
    { "name": "Domoit Silangan", "zip": "4327" },
    { "name": "Katigan Silangan", "zip": "4327" },
    { "name": "Palale Silangan", "zip": "4327" },
    { "name": "Talolong", "zip": "4327" },
    { "name": "Tamlong", "zip": "4327" },
    { "name": "Tongko", "zip": "4327" },
    { "name": "Valencia", "zip": "4327" },
    { "name": "Wakas", "zip": "4327" }
  ]
}
