{
  "province": "Quezon",
  "city": "Tiaong",
  "zip": "4325",
  "barangays": [
    { "name": "Anastacia (Tagbak)", "zip": "4325" },
    { "name": "Ayusan I", "zip": "4325" },
    { "name": "Barangay I (Pob.)", "zip": "4325" },
    { "name": "Barangay II (Pob.)", "zip": "4325" },
    { "name": "Barangay III (Pob.)", "zip": "4325" },
    { "name": "Barangay IV (Pob.)", "zip": "4325" },
    { "name": "Behia", "zip": "4325" },
    { "name": "Bukal", "zip": "4325" },
    { "name": "Bula", "zip": "4325" },
    { "name": "Bulakin", "zip": "4325" },
    { "name": "Cabatang", "zip": "4325" },
    { "name": "Cabay", "zip": "4325" },
    { "name": "Del Rosario", "zip": "4325" },
    { "name": "Lagalag", "zip": "4325" },
    { "name": "Lalig", "zip": "4325" },
    { "name": "Lumingon", "zip": "4325" },
    { "name": "Lusacan", "zip": "4325" },
    { "name": "Paiisa", "zip": "4325" },
    { "name": "Palagaran", "zip": "4325" },
    { "name": "Quipot", "zip": "4325" },
    { "name": "San Agustin", "zip": "4325" },
    { "name": "San Isidro", "zip": "4325" },
    { "name": "San Jose", "zip": "4325" },
    { "name": "San Juan", "zip": "4325" },
    { "name": "San Pedro", "zip": "4325" },
    { "name": "Tagbakin", "zip": "4325" },
    { "name": "Talisay", "zip": "4325" },
    { "name": "Tamisian", "zip": "4325" },
    { "name": "San Francisco", "zip": "4325" },
    { "name": "Aquino", "zip": "4325" },
    { "name": "Ayusan II", "zip": "4325" }
  ]
}
