{
  "province": "Quezon",
  "city": "Unisan",
  "zip": "4305",
  "barangays": [
    { "name": "Almacen", "zip": "4305" },
    { "name": "Balagtas", "zip": "4305" },
    { "name": "Balanacan", "zip": "4305" },
    { "name": "Bulo Ibaba", "zip": "4305" },
    { "name": "Bulo Ilaya", "zip": "4305" },
    { "name": "Bonifacio", "zip": "4305" },
    { "name": "Burgos", "zip": "4305" },
    { "name": "Caigdal", "zip": "4305" },
    { "name": "General Luna", "zip": "4305" },
    { "name": "Kalilayan Ibaba", "zip": "4305" },
    { "name": "Cabulihan Ibaba", "zip": "4305" },
    { "name": "Mairok Ibaba", "zip": "4305" },
    { "name": "Kalilayan Ilaya", "zip": "4305" },
    { "name": "Cabulihan Ilaya", "zip": "4305" },
    { "name": "Mabini", "zip": "4305" },
    { "name": "Mairok Ilaya", "zip": "4305" },
    { "name": "Malvar", "zip": "4305" },
    { "name": "Maputat", "zip": "4305" },
    { "name": "Muliguin", "zip": "4305" },
    { "name": "Pagaguasan", "zip": "4305" },
    { "name": "Panaon Ibaba", "zip": "4305" },
    { "name": "Panaon Ilaya", "zip": "4305" },
    { "name": "Plaridel", "zip": "4305" },
    { "name": "F. De Jesus (Pob.)", "zip": "4305" },
    { "name": "R. Lapu-lapu (Pob.)", "zip": "4305" },
    { "name": "Raja Soliman (Pob.)", "zip": "4305" },
    { "name": "R. Magsaysay (Pob.)", "zip": "4305" },
    { "name": "Poctol", "zip": "4305" },
    { "name": "Punta", "zip": "4305" },
    { "name": "Rizal Ibaba", "zip": "4305" },
    { "name": "Rizal Ilaya", "zip": "4305" },
    { "name": "San Roque", "zip": "4305" },
    { "name": "Socorro", "zip": "4305" },
    { "name": "Tagumpay", "zip": "4305" },
    { "name": "Tubas", "zip": "4305" },
    { "name": "Tubigan", "zip": "4305" }
  ]
}
