{
  "province": "Batangas",
  "city": "Balayan",
  "zip": "4213",
  "barangays": [
    { "name": "Baclaran", "zip": "4213" },
    { "name": "Barangay 1 (Pob.)", "zip": "4213" },
    { "name": "Barangay 2 (Pob.)", "zip": "4213" },
    { "name": "Barangay 3 (Pob.)", "zip": "4213" },
    { "name": "Barangay 4 (Pob.)", "zip": "4213" },
    { "name": "Barangay 5 (Pob.)", "zip": "4213" },
    { "name": "Barangay 6 (Pob.)", "zip": "4213" },
    { "name": "Barangay 7 (Pob.)", "zip": "4213" },
    { "name": "Barangay 8 (Pob.)", "zip": "4213" },
    { "name": "Barangay 9 (Pob.)", "zip": "4213" },
    { "name": "Barangay 10 (Pob.)", "zip": "4213" },
    { "name": "Barangay 11 (Pob.)", "zip": "4213" },
    { "name": "Barangay 12 (Pob.)", "zip": "4213" },
    { "name": "Calan", "zip": "4213" },
    { "name": "Caloocan", "zip": "4213" },
    { "name": "Calzada", "zip": "4213" },
    { "name": "Canda", "zip": "4213" },
    { "name": "Carenahan", "zip": "4213" },
    { "name": "Caybunga", "zip": "4213" },
    { "name": "Cayponce", "zip": "4213" },
    { "name": "Dalig", "zip": "4213" },
    { "name": "Dao", "zip": "4213" },
    { "name": "Dilao", "zip": "4213" },
    { "name": "Duhatan", "zip": "4213" },
    { "name": "Durungao", "zip": "4213" },
    { "name": "Gimalas", "zip": "4213" },
    { "name": "Gumamela", "zip": "4213" },
    { "name": "Lagnas", "zip": "4213" },
    { "name": "Lanatan", "zip": "4213" },
    { "name": "Langgangan", "zip": "4213" },
    { "name": "Lucban Putol", "zip": "4213" },
    { "name": "Lucban Pook", "zip": "4213" },
    { "name": "Magabe", "zip": "4213" },
    { "name": "Malalay", "zip": "4213" },
    { "name": "Munting Tubig", "zip": "4213" },
    { "name": "Navotas", "zip": "4213" },
    { "name": "Patugo", "zip": "4213" },
    { "name": "Palikpikan", "zip": "4213" },
    { "name": "Pooc", "zip": "4213" },
    { "name": "Sambat", "zip": "4213" },
    { "name": "Sampaga", "zip": "4213" },
    { "name": "San Juan", "zip": "4213" },
    { "name": "San Piro", "zip": "4213" },
    { "name": "Santol", "zip": "4213" },
    { "name": "Sukol", "zip": "4213" },
    { "name": "Tactac", "zip": "4213" },
    { "name": "Taludtud", "zip": "4213" },
    { "name": "Tanggoy", "zip": "4213" }
  ]
}
