{
  "province": "Batangas",
  "city": "Lemery",
  "zip": "4209",
  "barangays": [
    { "name": "Anak-Dagat", "zip": "4209" },
    { "name": "Arumahan", "zip": "4209" },
    { "name": "Ayao-iyao", "zip": "4209" },
    { "name": "Bagong Pook", "zip": "4209" },
    { "name": "Bagong Sikat", "zip": "4209" },
    { "name": "Balanga", "zip": "4209" },
    { "name": "Bukal", "zip": "4209" },
    { "name": "Cahilan I", "zip": "4209" },
    { "name": "Cahilan II", "zip": "4209" },
    { "name": "Dayapan", "zip": "4209" },
    { "name": "Dita", "zip": "4209" },
    { "name": "Gulod", "zip": "4209" },
    { "name": "Lucky", "zip": "4209" },
    { "name": "Maguihan", "zip": "4209" },
    { "name": "Mahabang Dahilig", "zip": "4209" },
    { "name": "Mahayahay", "zip": "4209" },
    { "name": "Maigsing Dahilig", "zip": "4209" },
    { "name": "Maligaya", "zip": "4209" },
    { "name": "Malinis", "zip": "4209" },
    { "name": "Masalisi", "zip": "4209" },
    { "name": "Mataas Na Bayan", "zip": "4209" },
    { "name": "Matingain I", "zip": "4209" },
    { "name": "Matingain II", "zip": "4209" },
    { "name": "Mayasang", "zip": "4209" },
    { "name": "Niugan", "zip": "4209" },
    { "name": "Nonong Casto", "zip": "4209" },
    { "name": "Palanas", "zip": "4209" },
    { "name": "Payapa Ibaba", "zip": "4209" },
    { "name": "Payapa Ilaya", "zip": "4209" },
    { "name": "District I (Pob.)", "zip": "4209" },
    { "name": "District II (Pob.)", "zip": "4209" },
    { "name": "District III (Pob.)", "zip": "4209" },
    { "name": "District IV (Pob.)", "zip": "4209" },
    { "name": "Rizal", "zip": "4209" },
    { "name": "Sambal Ibaba", "zip": "4209" },
    { "name": "Sambal Ilaya", "zip": "4209" },
    { "name": "San Isidro Ibaba", "zip": "4209" },
    { "name": "San Isidro Itaas", "zip": "4209" },
    { "name": "Sangalang", "zip": "4209" },
    { "name": "Talaga", "zip": "4209" },
    { "name": "Tubigan", "zip": "4209" },
    { "name": "Tubuan", "zip": "4209" },
    { "name": "Wawa Ibaba", "zip": "4209" },
    { "name": "Wawa Ilaya", "zip": "4209" },
    { "name": "Sinisian East", "zip": "4209" },
    { "name": "Sinisian West", "zip": "4209" }
  ]
}
