{
  "province": "Batangas",
  "city": "Lipa City",
  "zip": "4217",
  "barangays": [
    { "name": "Adya", "zip": "4217" },
    { "name": "Anilao", "zip": "4217" },
    { "name": "Anilao-Labac", "zip": "4217" },
    { "name": "Antipolo Del Norte", "zip": "4217" },
    { "name": "Antipolo Del Sur", "zip": "4217" },
    { "name": "Bagong Pook", "zip": "4217" },
    { "name": "San Sebastian (Balagbag)", "zip": "4217" },
    { "name": "Balintawak", "zip": "4217" },
    { "name": "Banaybanay", "zip": "4217" },
    { "name": "Bolbok", "zip": "4217" },
    { "name": "Bugtong na Pulo", "zip": "4217" },
    { "name": "Bulacnin", "zip": "4217" },
    { "name": "Bulaklakan", "zip": "4217" },
    { "name": "Calamias", "zip": "4217" },
    { "name": "Cumba", "zip": "4217" },
    { "name": "Dagatan", "zip": "4217" },
    { "name": "Duhatan", "zip": "4217" },
    { "name": "Halang", "zip": "4217" },
    { "name": "Inosloban", "zip": "4217" },
    { "name": "Kayumanggi", "zip": "4217" },
    { "name": "Latag", "zip": "4217" },
    { "name": "Lodlod", "zip": "4217" },
    { "name": "Lumbang", "zip": "4217" },
    { "name": "Mabini", "zip": "4217" },
    { "name": "Malagonlong", "zip": "4217" },
    { "name": "Malitlit", "zip": "4217" },
    { "name": "Marauoy", "zip": "4217" },
    { "name": "Mataas Na Lupa", "zip": "4217" },
    { "name": "Munting Pulo", "zip": "4217" },
    { "name": "Pagolingin Bata", "zip": "4217" },
    { "name": "Pagolingin East", "zip": "4217" },
    { "name": "Pagolingin West", "zip": "4217" },
    { "name": "Pangao", "zip": "4217" },
    { "name": "Pinagkawitan", "zip": "4217" },
    { "name": "Pinagtongulan", "zip": "4217" },
    { "name": "Plaridel", "zip": "4217" },
    { "name": "Poblacion Barangay 1", "zip": "4217" },
    { "name": "Poblacion Barangay 2", "zip": "4217" },
    { "name": "Poblacion Barangay 3", "zip": "4217" },
    { "name": "Poblacion Barangay 4", "zip": "4217" },
    { "name": "Poblacion Barangay 5", "zip": "4217" },
    { "name": "Poblacion Barangay 6", "zip": "4217" },
    { "name": "Poblacion Barangay 7", "zip": "4217" },
    { "name": "Poblacion Barangay 8", "zip": "4217" },
    { "name": "Poblacion Barangay 9", "zip": "4217" },
    { "name": "Poblacion Barangay 9-A", "zip": "4217" },
    { "name": "Poblacion Barangay 10", "zip": "4217" },
    { "name": "Poblacion Barangay 11", "zip": "4217" },
    { "name": "Barangay 12 (Pob.)", "zip": "4217" },
    { "name": "Pusil", "zip": "4217" },
    { "name": "Quezon", "zip": "4217" },
    { "name": "Rizal", "zip": "4217" },
    { "name": "Sabang", "zip": "4217" },
    { "name": "Sampaguita", "zip": "4217" },
    { "name": "San Benito", "zip": "4217" },
    { "name": "San Carlos", "zip": "4217" },
    { "name": "San Celestino", "zip": "4217" },
    { "name": "San Francisco", "zip": "4217" },
    { "name": "San Guillermo", "zip": "4217" },
    { "name": "San Jose", "zip": "4217" },
    { "name": "San Lucas", "zip": "4217" },
    { "name": "San Salvador", "zip": "4217" },
    { "name": "Sapac", "zip": "4217" },
    { "name": "Sico", "zip": "4217" },
    { "name": "Santo Niño", "zip": "4217" },
    { "name": "Santo Toribio", "zip": "4217" },
    { "name": "Talisay", "zip": "4217" },
    { "name": "Tambo", "zip": "4217" },
    { "name": "Tangob", "zip": "4217" },
    { "name": "Tanguay", "zip": "4217" },
    { "name": "Tibig", "zip": "4217" },
    { "name": "Tipacan", "zip": "4217" }
  ]
}
