{
  "province": "Batangas",
  "city": "Mabini",
  "zip": "4202",
  "barangays": [
    { "name": "Anilao Proper", "zip": "4202" },
    { "name": "Anilao East", "zip": "4202" },
    { "name": "Bagalangit", "zip": "4202" },
    { "name": "Bulacan", "zip": "4202" },
    { "name": "Calamias", "zip": "4202" },
    { "name": "Estrella", "zip": "4202" },
    { "name": "Gasang", "zip": "4202" },
    { "name": "Laurel", "zip": "4202" },
    { "name": "Ligaya", "zip": "4202" },
    { "name": "Mainaga", "zip": "4202" },
    { "name": "Mainit", "zip": "4202" },
    { "name": "Majuben", "zip": "4202" },
    { "name": "Malimatoc I", "zip": "4202" },
    { "name": "Malimatoc II", "zip": "4202" },
    { "name": "Nag-Iba", "zip": "4202" },
    { "name": "Pilahan", "zip": "4202" },
    { "name": "Poblacion", "zip": "4202" },
    { "name": "Pulang Lupa", "zip": "4202" },
    { "name": "Pulong Anahao", "zip": "4202" },
    { "name": "Pulong Balibaguhan", "zip": "4202" },
    { "name": "Pulong Niogan", "zip": "4202" },
    { "name": "Saguing", "zip": "4202" },
    { "name": "Sampaguita", "zip": "4202" },
    { "name": "San Francisco", "zip": "4202" },
    { "name": "San Jose", "zip": "4202" },
    { "name": "San Juan", "zip": "4202" },
    { "name": "San Teodoro", "zip": "4202" },
    { "name": "Santa Ana", "zip": "4202" },
    { "name": "Santa Mesa", "zip": "4202" },
    { "name": "Santo Ni√±o", "zip": "4202" },
    { "name": "Santo Tomas", "zip": "4202" },
    { "name": "Solo", "zip": "4202" },
    { "name": "Talaga Proper", "zip": "4202" },
    { "name": "Talaga East", "zip": "4202" }
  ]
}
