{
  "province": "Batangas",
  "city": "Nasugbu",
  "zip": "4231",
  "barangays": [
    { "name": "Aga", "zip": "4231" },
    { "name": "Balaytigui", "zip": "4231" },
    { "name": "Banilad", "zip": "4231" },
    { "name": "Barangay 10 (Pob.)", "zip": "4231" },
    { "name": "Barangay 11 (Pob.)", "zip": "4231" },
    { "name": "Barangay 12 (Pob.)", "zip": "4231" },
    { "name": "Barangay 2 (Pob.)", "zip": "4231" },
    { "name": "Barangay 3 (Pob.)", "zip": "4231" },
    { "name": "Barangay 4 (Pob.)", "zip": "4231" },
    { "name": "Barangay 5 (Pob.)", "zip": "4231" },
    { "name": "Barangay 6 (Pob.)", "zip": "4231" },
    { "name": "Barangay 7 (Pob.)", "zip": "4231" },
    { "name": "Barangay 8 (Pob.)", "zip": "4231" },
    { "name": "Barangay 9 (Pob.)", "zip": "4231" },
    { "name": "Bilaran", "zip": "4231" },
    { "name": "Bucana", "zip": "4231" },
    { "name": "Bulihan", "zip": "4231" },
    { "name": "Bunducan", "zip": "4231" },
    { "name": "Butucan", "zip": "4231" },
    { "name": "Calayo", "zip": "4231" },
    { "name": "Catandaan", "zip": "4231" },
    { "name": "Kaylaway", "zip": "4231" },
    { "name": "Kayrilaw", "zip": "4231" },
    { "name": "Cogunan", "zip": "4231" },
    { "name": "Dayap", "zip": "4231" },
    { "name": "Latag", "zip": "4231" },
    { "name": "Looc", "zip": "4231" },
    { "name": "Lumbangan", "zip": "4231" },
    { "name": "Malapad Na Bato", "zip": "4231" },
    { "name": "Mataas Na Pulo", "zip": "4231" },
    { "name": "Maugat", "zip": "4231" },
    { "name": "Munting Indan", "zip": "4231" },
    { "name": "Natipuan", "zip": "4231" },
    { "name": "Pantalan", "zip": "4231" },
    { "name": "Papaya", "zip": "4231" },
    { "name": "Putat", "zip": "4231" },
    { "name": "Reparo", "zip": "4231" },
    { "name": "Talangan", "zip": "4231" },
    { "name": "Tumalim", "zip": "4231" },
    { "name": "Utod", "zip": "4231" },
    { "name": "Wawa", "zip": "4231" },
    { "name": "Barangay 1 (Pob.)", "zip": "4231" }
  ]
}
