{
  "province": "Batangas",
  "city": "San Pascual",
  "zip": "4204",
  "barangays": [
    { "name": "Alalum", "zip": "4204" },
    { "name": "Antipolo", "zip": "4204" },
    { "name": "Balimbing", "zip": "4204" },
    { "name": "Banaba", "zip": "4204" },
    { "name": "Bayanan", "zip": "4204" },
    { "name": "Danglayan", "zip": "4204" },
    { "name": "Del Pilar", "zip": "4204" },
    { "name": "Gelerang Kawayan", "zip": "4204" },
    { "name": "Ilat North", "zip": "4204" },
    { "name": "Ilat South", "zip": "4204" },
    { "name": "Kaingin", "zip": "4204" },
    { "name": "Laurel", "zip": "4204" },
    { "name": "Malaking Pook", "zip": "4204" },
    { "name": "Mataas Na Lupa", "zip": "4204" },
    { "name": "Natunuan North", "zip": "4204" },
    { "name": "Natunuan South", "zip": "4204" },
    { "name": "Padre Castillo", "zip": "4204" },
    { "name": "Palsahingin", "zip": "4204" },
    { "name": "Pila", "zip": "4204" },
    { "name": "Poblacion", "zip": "4204" },
    { "name": "Pook Ni Banal", "zip": "4204" },
    { "name": "Pook Ni Kapitan", "zip": "4204" },
    { "name": "Resplandor", "zip": "4204" },
    { "name": "Sambat", "zip": "4204" },
    { "name": "San Antonio", "zip": "4204" },
    { "name": "San Mariano", "zip": "4204" },
    { "name": "San Mateo", "zip": "4204" },
    { "name": "Santa Elena", "zip": "4204" },
    { "name": "Santo Ni√±o", "zip": "4204" }
  ]
}
