{
  "province": "Batangas",
  "city": "San Jose",
  "zip": "4227",
  "barangays": [
    { "name": "Aguila", "zip": "4227" },
    { "name": "Anus", "zip": "4227" },
    { "name": "Aya", "zip": "4227" },
    { "name": "Bagong Pook", "zip": "4227" },
    { "name": "Balagtasin", "zip": "4227" },
    { "name": "Balagtasin I", "zip": "4227" },
    { "name": "Banaybanay I", "zip": "4227" },
    { "name": "Banaybanay II", "zip": "4227" },
    { "name": "Bigain I", "zip": "4227" },
    { "name": "Bigain II", "zip": "4227" },
    { "name": "Calansayan", "zip": "4227" },
    { "name": "Dagatan", "zip": "4227" },
    { "name": "Don Luis", "zip": "4227" },
    { "name": "Galamay-Amo", "zip": "4227" },
    { "name": "Lalayat", "zip": "4227" },
    { "name": "Lapolapo I", "zip": "4227" },
    { "name": "Lapolapo II", "zip": "4227" },
    { "name": "Lepute", "zip": "4227" },
    { "name": "Lumil", "zip": "4227" },
    { "name": "Natunuan", "zip": "4227" },
    { "name": "Palanca", "zip": "4227" },
    { "name": "Pinagtung-Ulan", "zip": "4227" },
    { "name": "Poblacion Barangay I", "zip": "4227" },
    { "name": "Poblacion Barangay II", "zip": "4227" },
    { "name": "Poblacion Barangay III", "zip": "4227" },
    { "name": "Poblacion Barangay IV", "zip": "4227" },
    { "name": "Sabang", "zip": "4227" },
    { "name": "Salaban", "zip": "4227" },
    { "name": "Santo Cristo", "zip": "4227" },
    { "name": "Mojon-Tampoy", "zip": "4227" },
    { "name": "Taysan", "zip": "4227" },
    { "name": "Tugtug", "zip": "4227" },
    { "name": "Bigain South", "zip": "4227" }
  ]
}
