{
  "province": "Batangas",
  "city": "San Juan",
  "zip": "4226",
  "barangays": [
    { "name": "Abung", "zip": "4226" },
    { "name": "Balagbag", "zip": "4226" },
    { "name": "Barualte", "zip": "4226" },
    { "name": "Bataan", "zip": "4226" },
    { "name": "Buhay Na Sapa", "zip": "4226" },
    { "name": "Bulsa", "zip": "4226" },
    { "name": "Calicanto", "zip": "4226" },
    { "name": "Calitcalit", "zip": "4226" },
    { "name": "Calubcub I", "zip": "4226" },
    { "name": "Calubcub II", "zip": "4226" },
    { "name": "Catmon", "zip": "4226" },
    { "name": "Coloconto", "zip": "4226" },
    { "name": "Escribano", "zip": "4226" },
    { "name": "Hugom", "zip": "4226" },
    { "name": "Imelda (Tubog)", "zip": "4226" },
    { "name": "Janaojanao", "zip": "4226" },
    { "name": "Laiya-Ibabao", "zip": "4226" },
    { "name": "Laiya-Aplaya", "zip": "4226" },
    { "name": "Libato", "zip": "4226" },
    { "name": "Lipahan", "zip": "4226" },
    { "name": "Mabalanoy", "zip": "4226" },
    { "name": "Nagsaulay", "zip": "4226" },
    { "name": "Maraykit", "zip": "4226" },
    { "name": "Muzon", "zip": "4226" },
    { "name": "Palahanan I", "zip": "4226" },
    { "name": "Palahanan II", "zip": "4226" },
    { "name": "Palingowak", "zip": "4226" },
    { "name": "Pinagbayanan", "zip": "4226" },
    { "name": "Poblacion", "zip": "4226" },
    { "name": "Poctol", "zip": "4226" },
    { "name": "Pulangbato", "zip": "4226" },
    { "name": "Putingbuhangin", "zip": "4226" },
    { "name": "Quipot", "zip": "4226" },
    { "name": "Sampiro", "zip": "4226" },
    { "name": "Sapangan", "zip": "4226" },
    { "name": "Sico I", "zip": "4226" },
    { "name": "Sico II", "zip": "4226" },
    { "name": "Subukin", "zip": "4226" },
    { "name": "Talahiban I", "zip": "4226" },
    { "name": "Talahiban II", "zip": "4226" },
    { "name": "Ticalan", "zip": "4226" },
    { "name": "Tipaz", "zip": "4226" }
  ]
}
