{
  "province": "Batangas",
  "city": "Santo Tomas",
  "zip": "4234",
  "barangays": [
    { "name": "Barangay I (Pob.)", "zip": "4234" },
    { "name": "Barangay II (Pob.)", "zip": "4234" },
    { "name": "Barangay III (Pob.)", "zip": "4234" },
    { "name": "Barangay IV (Pob.)", "zip": "4234" },
    { "name": "San Agustin", "zip": "4234" },
    { "name": "San Antonio", "zip": "4234" },
    { "name": "San Bartolome", "zip": "4234" },
    { "name": "San Felix", "zip": "4234" },
    { "name": "San Fernando", "zip": "4234" },
    { "name": "San Francisco", "zip": "4234" },
    { "name": "San Isidro Norte", "zip": "4234" },
    { "name": "San Isidro Sur", "zip": "4234" },
    { "name": "San Joaquin", "zip": "4234" },
    { "name": "San Jose", "zip": "4234" },
    { "name": "San Juan", "zip": "4234" },
    { "name": "San Luis", "zip": "4234" },
    { "name": "San Miguel", "zip": "4234" },
    { "name": "San Pablo", "zip": "4234" },
    { "name": "San Pedro", "zip": "4234" },
    { "name": "San Rafael", "zip": "4234" },
    { "name": "San Roque", "zip": "4234" },
    { "name": "San Vicente", "zip": "4234" },
    { "name": "Santa Ana", "zip": "4234" },
    { "name": "Santa Anastacia", "zip": "4234" },
    { "name": "Santa Clara", "zip": "4234" },
    { "name": "Santa Cruz", "zip": "4234" },
    { "name": "Santa Elena", "zip": "4234" },
    { "name": "Santa Maria", "zip": "4234" },
    { "name": "Santiago", "zip": "4234" },
    { "name": "Santa Teresita", "zip": "4234" }
  ]
}
