{
  "province": "Batangas",
  "city": "Taal",
  "zip": "4208",
  "barangays": [
    { "name": "Apacay", "zip": "4208" },
    { "name": "Balisong", "zip": "4208" },
    { "name": "Bihis", "zip": "4208" },
    { "name": "Bolbok", "zip": "4208" },
    { "name": "Buli", "zip": "4208" },
    { "name": "Butong", "zip": "4208" },
    { "name": "Carasuche", "zip": "4208" },
    { "name": "Cawit", "zip": "4208" },
    { "name": "Caysasay", "zip": "4208" },
    { "name": "Cubamba", "zip": "4208" },
    { "name": "Cultihan", "zip": "4208" },
    { "name": "Gahol", "zip": "4208" },
    { "name": "Halang", "zip": "4208" },
    { "name": "Iba", "zip": "4208" },
    { "name": "Ilog", "zip": "4208" },
    { "name": "Imamawo", "zip": "4208" },
    { "name": "Ipil", "zip": "4208" },
    { "name": "Luntal", "zip": "4208" },
    { "name": "Mahabang Lodlod", "zip": "4208" },
    { "name": "Niogan", "zip": "4208" },
    { "name": "Pansol", "zip": "4208" },
    { "name": "Poblacion 1", "zip": "4208" },
    { "name": "Poblacion 2", "zip": "4208" },
    { "name": "Poblacion 3", "zip": "4208" },
    { "name": "Poblacion 4", "zip": "4208" },
    { "name": "Poblacion 5", "zip": "4208" },
    { "name": "Poblacion 6", "zip": "4208" },
    { "name": "Poblacion 7", "zip": "4208" },
    { "name": "Poblacion 8", "zip": "4208" },
    { "name": "Poblacion 9", "zip": "4208" },
    { "name": "Poblacion 10", "zip": "4208" },
    { "name": "Poblacion 11", "zip": "4208" },
    { "name": "Poblacion 12", "zip": "4208" },
    { "name": "Poblacion 13", "zip": "4208" },
    { "name": "Poblacion 14", "zip": "4208" },
    { "name": "Pook", "zip": "4208" },
    { "name": "Seiran", "zip": "4208" },
    { "name": "Laguile", "zip": "4208" },
    { "name": "Latag", "zip": "4208" },
    { "name": "Tierra Alta", "zip": "4208" },
    { "name": "Tulo", "zip": "4208" },
    { "name": "Tatlong Maria", "zip": "4208" }
  ]
}
