{
  "province": "Batangas",
  "city": "Tanauan City",
  "zip": "4232",
  "barangays": [
    { "name": "Altura Bata", "zip": "4232" },
    { "name": "Altura Matanda", "zip": "4232" },
    { "name": "Altura-South", "zip": "4232" },
    { "name": "Ambulong", "zip": "4232" },
    { "name": "Banadero", "zip": "4232" },
    { "name": "Bagbag", "zip": "4232" },
    { "name": "Bagumbayan", "zip": "4232" },
    { "name": "Balele", "zip": "4232" },
    { "name": "Banjo East", "zip": "4232" },
    { "name": "Banjo Laurel (Banjo West)", "zip": "4232" },
    { "name": "Bilog-bilog", "zip": "4232" },
    { "name": "Boot", "zip": "4232" },
    { "name": "Cale", "zip": "4232" },
    { "name": "Darasa", "zip": "4232" },
    { "name": "Pagaspas", "zip": "4232" },
    { "name": "Gonzales", "zip": "4232" },
    { "name": "Hidalgo", "zip": "4232" },
    { "name": "Janopol", "zip": "4232" },
    { "name": "Janopol Oriental", "zip": "4232" },
    { "name": "Laurel", "zip": "4232" },
    { "name": "Luyos", "zip": "4232" },
    { "name": "Mabini", "zip": "4232" },
    { "name": "Malaking Pulo", "zip": "4232" },
    { "name": "Maria Paz", "zip": "4232" },
    { "name": "Maugat", "zip": "4232" },
    { "name": "Montaña (Ik-ik)", "zip": "4232" },
    { "name": "Natatas", "zip": "4232" },
    { "name": "Pantay Matanda", "zip": "4232" },
    { "name": "Pantay Bata", "zip": "4232" },
    { "name": "Poblacion Barangay 1", "zip": "4232" },
    { "name": "Poblacion Barangay 2", "zip": "4232" },
    { "name": "Poblacion Barangay 3", "zip": "4232" },
    { "name": "Poblacion Barangay 4", "zip": "4232" },
    { "name": "Poblacion Barangay 5", "zip": "4232" },
    { "name": "Poblacion Barangay 6", "zip": "4232" },
    { "name": "Poblacion Barangay 7", "zip": "4232" },
    { "name": "Sala", "zip": "4232" },
    { "name": "Sambat", "zip": "4232" },
    { "name": "San Jose", "zip": "4232" },
    { "name": "Santol (Doña Jacoba Garcia)", "zip": "4232" },
    { "name": "Santor", "zip": "4232" },
    { "name": "Sulpoc", "zip": "4232" },
    { "name": "Suplang", "zip": "4232" },
    { "name": "Talaga", "zip": "4232" },
    { "name": "Tinurik", "zip": "4232" },
    { "name": "Trapiche", "zip": "4232" },
    { "name": "Ulango", "zip": "4232" },
    { "name": "Wawa", "zip": "4232" }
  ]
}
